<?xml version="1.0" encoding="utf-8"?>
<kml xmlns="http://www.opengis.net/kml/2.2">
  <Document>
    <name>6/30/16.kml</name>
    <description></description>
    <Style>
      <ListStyle id="hideChildren">
        <listItemType>checkHideChildren</listItemType>
      </ListStyle>
    </Style>
    <Region>
      <LatLonAltBox>
        <north>39.79041667777777</north>
        <south>39.64819445555555</south>
        <east>30.48236110000001</east>
        <west>30.34013887777779</west>
      </LatLonAltBox>
      <Lod>
        <minLodPixels>128</minLodPixels>
        <maxLodPixels>2048</maxLodPixels>
      </Lod>
    </Region>
    <GroundOverlay>
      <drawOrder>12</drawOrder>
      <Icon>
        <href>16.png</href>
      </Icon>
      <LatLonBox>
        <north>39.79041667777777</north>
        <south>39.64819445555555</south>
        <east>30.48236110000001</east>
        <west>30.34013887777779</west>
      </LatLonBox>
    </GroundOverlay>

    <NetworkLink>
      <name>7/60/33.png</name>
      <Region>
        <LatLonAltBox>
          <north>39.71930556666666</north>
          <south>39.64819445555555</south>
          <east>30.41124998888890</east>
          <west>30.34013887777779</west>
        </LatLonAltBox>
        <Lod>
          <minLodPixels>128</minLodPixels>
          <maxLodPixels>-1</maxLodPixels>
        </Lod>
      </Region>
      <Link>
        <href>../../7/60/33.kml</href>
        <viewRefreshMode>onRegion</viewRefreshMode>
        <viewFormat/>
      </Link>
    </NetworkLink>
        
    <NetworkLink>
      <name>7/61/33.png</name>
      <Region>
        <LatLonAltBox>
          <north>39.71930556666666</north>
          <south>39.64819445555555</south>
          <east>30.48236110000001</east>
          <west>30.41124998888890</west>
        </LatLonAltBox>
        <Lod>
          <minLodPixels>128</minLodPixels>
          <maxLodPixels>-1</maxLodPixels>
        </Lod>
      </Region>
      <Link>
        <href>../../7/61/33.kml</href>
        <viewRefreshMode>onRegion</viewRefreshMode>
        <viewFormat/>
      </Link>
    </NetworkLink>
        
    <NetworkLink>
      <name>7/60/32.png</name>
      <Region>
        <LatLonAltBox>
          <north>39.79041667777777</north>
          <south>39.71930556666666</south>
          <east>30.41124998888890</east>
          <west>30.34013887777779</west>
        </LatLonAltBox>
        <Lod>
          <minLodPixels>128</minLodPixels>
          <maxLodPixels>-1</maxLodPixels>
        </Lod>
      </Region>
      <Link>
        <href>../../7/60/32.kml</href>
        <viewRefreshMode>onRegion</viewRefreshMode>
        <viewFormat/>
      </Link>
    </NetworkLink>
        
    <NetworkLink>
      <name>7/61/32.png</name>
      <Region>
        <LatLonAltBox>
          <north>39.79041667777777</north>
          <south>39.71930556666666</south>
          <east>30.48236110000001</east>
          <west>30.41124998888890</west>
        </LatLonAltBox>
        <Lod>
          <minLodPixels>128</minLodPixels>
          <maxLodPixels>-1</maxLodPixels>
        </Lod>
      </Region>
      <Link>
        <href>../../7/61/32.kml</href>
        <viewRefreshMode>onRegion</viewRefreshMode>
        <viewFormat/>
      </Link>
    </NetworkLink>
              </Document>
</kml>
    