<?xml version="1.0" encoding="utf-8"?>
<kml xmlns="http://www.opengis.net/kml/2.2">
  <Document>
    <name>5/8/2.kml</name>
    <description></description>
    <Style>
      <ListStyle id="hideChildren">
        <listItemType>checkHideChildren</listItemType>
      </ListStyle>
    </Style>
    <Region>
      <LatLonAltBox>
        <north>41.49708334444444</north>
        <south>41.21263889999999</south>
        <east>28.63347221111112</east>
        <west>28.34902776666668</west>
      </LatLonAltBox>
      <Lod>
        <minLodPixels>128</minLodPixels>
        <maxLodPixels>2048</maxLodPixels>
      </Lod>
    </Region>
    <GroundOverlay>
      <drawOrder>10</drawOrder>
      <Icon>
        <href>2.png</href>
      </Icon>
      <LatLonBox>
        <north>41.49708334444444</north>
        <south>41.21263889999999</south>
        <east>28.63347221111112</east>
        <west>28.34902776666668</west>
      </LatLonBox>
    </GroundOverlay>

    <NetworkLink>
      <name>6/16/5.png</name>
      <Region>
        <LatLonAltBox>
          <north>41.35486112222222</north>
          <south>41.21263889999999</south>
          <east>28.49124998888890</east>
          <west>28.34902776666668</west>
        </LatLonAltBox>
        <Lod>
          <minLodPixels>128</minLodPixels>
          <maxLodPixels>-1</maxLodPixels>
        </Lod>
      </Region>
      <Link>
        <href>../../6/16/5.kml</href>
        <viewRefreshMode>onRegion</viewRefreshMode>
        <viewFormat/>
      </Link>
    </NetworkLink>
        
    <NetworkLink>
      <name>6/17/5.png</name>
      <Region>
        <LatLonAltBox>
          <north>41.35486112222222</north>
          <south>41.21263889999999</south>
          <east>28.63347221111113</east>
          <west>28.49124998888890</west>
        </LatLonAltBox>
        <Lod>
          <minLodPixels>128</minLodPixels>
          <maxLodPixels>-1</maxLodPixels>
        </Lod>
      </Region>
      <Link>
        <href>../../6/17/5.kml</href>
        <viewRefreshMode>onRegion</viewRefreshMode>
        <viewFormat/>
      </Link>
    </NetworkLink>
        
    <NetworkLink>
      <name>6/16/4.png</name>
      <Region>
        <LatLonAltBox>
          <north>41.49708334444444</north>
          <south>41.35486112222222</south>
          <east>28.49124998888890</east>
          <west>28.34902776666668</west>
        </LatLonAltBox>
        <Lod>
          <minLodPixels>128</minLodPixels>
          <maxLodPixels>-1</maxLodPixels>
        </Lod>
      </Region>
      <Link>
        <href>../../6/16/4.kml</href>
        <viewRefreshMode>onRegion</viewRefreshMode>
        <viewFormat/>
      </Link>
    </NetworkLink>
        
    <NetworkLink>
      <name>6/17/4.png</name>
      <Region>
        <LatLonAltBox>
          <north>41.49708334444444</north>
          <south>41.35486112222222</south>
          <east>28.63347221111113</east>
          <west>28.49124998888890</west>
        </LatLonAltBox>
        <Lod>
          <minLodPixels>128</minLodPixels>
          <maxLodPixels>-1</maxLodPixels>
        </Lod>
      </Region>
      <Link>
        <href>../../6/17/4.kml</href>
        <viewRefreshMode>onRegion</viewRefreshMode>
        <viewFormat/>
      </Link>
    </NetworkLink>
              </Document>
</kml>
    