<?xml version="1.0" encoding="utf-8"?>
<kml xmlns="http://www.opengis.net/kml/2.2">
  <Document>
    <name>5/8/8.kml</name>
    <description></description>
    <Style>
      <ListStyle id="hideChildren">
        <listItemType>checkHideChildren</listItemType>
      </ListStyle>
    </Style>
    <Region>
      <LatLonAltBox>
        <north>39.79041667777777</north>
        <south>39.50597223333332</south>
        <east>28.63347221111112</east>
        <west>28.34902776666668</west>
      </LatLonAltBox>
      <Lod>
        <minLodPixels>128</minLodPixels>
        <maxLodPixels>2048</maxLodPixels>
      </Lod>
    </Region>
    <GroundOverlay>
      <drawOrder>10</drawOrder>
      <Icon>
        <href>8.png</href>
      </Icon>
      <LatLonBox>
        <north>39.79041667777777</north>
        <south>39.50597223333332</south>
        <east>28.63347221111112</east>
        <west>28.34902776666668</west>
      </LatLonBox>
    </GroundOverlay>

    <NetworkLink>
      <name>6/16/17.png</name>
      <Region>
        <LatLonAltBox>
          <north>39.64819445555555</north>
          <south>39.50597223333332</south>
          <east>28.49124998888890</east>
          <west>28.34902776666668</west>
        </LatLonAltBox>
        <Lod>
          <minLodPixels>128</minLodPixels>
          <maxLodPixels>-1</maxLodPixels>
        </Lod>
      </Region>
      <Link>
        <href>../../6/16/17.kml</href>
        <viewRefreshMode>onRegion</viewRefreshMode>
        <viewFormat/>
      </Link>
    </NetworkLink>
        
    <NetworkLink>
      <name>6/17/17.png</name>
      <Region>
        <LatLonAltBox>
          <north>39.64819445555555</north>
          <south>39.50597223333332</south>
          <east>28.63347221111113</east>
          <west>28.49124998888890</west>
        </LatLonAltBox>
        <Lod>
          <minLodPixels>128</minLodPixels>
          <maxLodPixels>-1</maxLodPixels>
        </Lod>
      </Region>
      <Link>
        <href>../../6/17/17.kml</href>
        <viewRefreshMode>onRegion</viewRefreshMode>
        <viewFormat/>
      </Link>
    </NetworkLink>
        
    <NetworkLink>
      <name>6/16/16.png</name>
      <Region>
        <LatLonAltBox>
          <north>39.79041667777777</north>
          <south>39.64819445555555</south>
          <east>28.49124998888890</east>
          <west>28.34902776666668</west>
        </LatLonAltBox>
        <Lod>
          <minLodPixels>128</minLodPixels>
          <maxLodPixels>-1</maxLodPixels>
        </Lod>
      </Region>
      <Link>
        <href>../../6/16/16.kml</href>
        <viewRefreshMode>onRegion</viewRefreshMode>
        <viewFormat/>
      </Link>
    </NetworkLink>
        
    <NetworkLink>
      <name>6/17/16.png</name>
      <Region>
        <LatLonAltBox>
          <north>39.79041667777777</north>
          <south>39.64819445555555</south>
          <east>28.63347221111113</east>
          <west>28.49124998888890</west>
        </LatLonAltBox>
        <Lod>
          <minLodPixels>128</minLodPixels>
          <maxLodPixels>-1</maxLodPixels>
        </Lod>
      </Region>
      <Link>
        <href>../../6/17/16.kml</href>
        <viewRefreshMode>onRegion</viewRefreshMode>
        <viewFormat/>
      </Link>
    </NetworkLink>
              </Document>
</kml>
    