<?xml version="1.0" encoding="utf-8"?>
<kml xmlns="http://www.opengis.net/kml/2.2">
  <Document>
    <name>5/11/8.kml</name>
    <description></description>
    <Style>
      <ListStyle id="hideChildren">
        <listItemType>checkHideChildren</listItemType>
      </ListStyle>
    </Style>
    <Region>
      <LatLonAltBox>
        <north>39.79041667777777</north>
        <south>39.50597223333332</south>
        <east>29.48680554444445</east>
        <west>29.20236110000001</west>
      </LatLonAltBox>
      <Lod>
        <minLodPixels>128</minLodPixels>
        <maxLodPixels>2048</maxLodPixels>
      </Lod>
    </Region>
    <GroundOverlay>
      <drawOrder>10</drawOrder>
      <Icon>
        <href>8.png</href>
      </Icon>
      <LatLonBox>
        <north>39.79041667777777</north>
        <south>39.50597223333332</south>
        <east>29.48680554444445</east>
        <west>29.20236110000001</west>
      </LatLonBox>
    </GroundOverlay>

    <NetworkLink>
      <name>6/22/17.png</name>
      <Region>
        <LatLonAltBox>
          <north>39.64819445555555</north>
          <south>39.50597223333332</south>
          <east>29.34458332222223</east>
          <west>29.20236110000001</west>
        </LatLonAltBox>
        <Lod>
          <minLodPixels>128</minLodPixels>
          <maxLodPixels>-1</maxLodPixels>
        </Lod>
      </Region>
      <Link>
        <href>../../6/22/17.kml</href>
        <viewRefreshMode>onRegion</viewRefreshMode>
        <viewFormat/>
      </Link>
    </NetworkLink>
        
    <NetworkLink>
      <name>6/23/17.png</name>
      <Region>
        <LatLonAltBox>
          <north>39.64819445555555</north>
          <south>39.50597223333332</south>
          <east>29.48680554444446</east>
          <west>29.34458332222223</west>
        </LatLonAltBox>
        <Lod>
          <minLodPixels>128</minLodPixels>
          <maxLodPixels>-1</maxLodPixels>
        </Lod>
      </Region>
      <Link>
        <href>../../6/23/17.kml</href>
        <viewRefreshMode>onRegion</viewRefreshMode>
        <viewFormat/>
      </Link>
    </NetworkLink>
        
    <NetworkLink>
      <name>6/22/16.png</name>
      <Region>
        <LatLonAltBox>
          <north>39.79041667777777</north>
          <south>39.64819445555555</south>
          <east>29.34458332222223</east>
          <west>29.20236110000001</west>
        </LatLonAltBox>
        <Lod>
          <minLodPixels>128</minLodPixels>
          <maxLodPixels>-1</maxLodPixels>
        </Lod>
      </Region>
      <Link>
        <href>../../6/22/16.kml</href>
        <viewRefreshMode>onRegion</viewRefreshMode>
        <viewFormat/>
      </Link>
    </NetworkLink>
        
    <NetworkLink>
      <name>6/23/16.png</name>
      <Region>
        <LatLonAltBox>
          <north>39.79041667777777</north>
          <south>39.64819445555555</south>
          <east>29.48680554444446</east>
          <west>29.34458332222223</west>
        </LatLonAltBox>
        <Lod>
          <minLodPixels>128</minLodPixels>
          <maxLodPixels>-1</maxLodPixels>
        </Lod>
      </Region>
      <Link>
        <href>../../6/23/16.kml</href>
        <viewRefreshMode>onRegion</viewRefreshMode>
        <viewFormat/>
      </Link>
    </NetworkLink>
              </Document>
</kml>
    