<?xml version="1.0" encoding="utf-8"?>
<kml xmlns="http://www.opengis.net/kml/2.2">
  <Document>
    <name>6/46/1.kml</name>
    <description></description>
    <Style>
      <ListStyle id="hideChildren">
        <listItemType>checkHideChildren</listItemType>
      </ListStyle>
    </Style>
    <Region>
      <LatLonAltBox>
        <north>41.92375001111110</north>
        <south>41.78152778888888</south>
        <east>32.75791665555557</east>
        <west>32.61569443333335</west>
      </LatLonAltBox>
      <Lod>
        <minLodPixels>128</minLodPixels>
        <maxLodPixels>2048</maxLodPixels>
      </Lod>
    </Region>
    <GroundOverlay>
      <drawOrder>12</drawOrder>
      <Icon>
        <href>1.png</href>
      </Icon>
      <LatLonBox>
        <north>41.92375001111110</north>
        <south>41.78152778888888</south>
        <east>32.75791665555557</east>
        <west>32.61569443333335</west>
      </LatLonBox>
    </GroundOverlay>

    <NetworkLink>
      <name>7/92/3.png</name>
      <Region>
        <LatLonAltBox>
          <north>41.85263890000000</north>
          <south>41.78152778888889</south>
          <east>32.68680554444445</east>
          <west>32.61569443333335</west>
        </LatLonAltBox>
        <Lod>
          <minLodPixels>128</minLodPixels>
          <maxLodPixels>-1</maxLodPixels>
        </Lod>
      </Region>
      <Link>
        <href>../../7/92/3.kml</href>
        <viewRefreshMode>onRegion</viewRefreshMode>
        <viewFormat/>
      </Link>
    </NetworkLink>
        
    <NetworkLink>
      <name>7/93/3.png</name>
      <Region>
        <LatLonAltBox>
          <north>41.85263890000000</north>
          <south>41.78152778888889</south>
          <east>32.75791665555556</east>
          <west>32.68680554444445</west>
        </LatLonAltBox>
        <Lod>
          <minLodPixels>128</minLodPixels>
          <maxLodPixels>-1</maxLodPixels>
        </Lod>
      </Region>
      <Link>
        <href>../../7/93/3.kml</href>
        <viewRefreshMode>onRegion</viewRefreshMode>
        <viewFormat/>
      </Link>
    </NetworkLink>
        
    <NetworkLink>
      <name>7/92/2.png</name>
      <Region>
        <LatLonAltBox>
          <north>41.92375001111110</north>
          <south>41.85263890000000</south>
          <east>32.68680554444445</east>
          <west>32.61569443333335</west>
        </LatLonAltBox>
        <Lod>
          <minLodPixels>128</minLodPixels>
          <maxLodPixels>-1</maxLodPixels>
        </Lod>
      </Region>
      <Link>
        <href>../../7/92/2.kml</href>
        <viewRefreshMode>onRegion</viewRefreshMode>
        <viewFormat/>
      </Link>
    </NetworkLink>
        
    <NetworkLink>
      <name>7/93/2.png</name>
      <Region>
        <LatLonAltBox>
          <north>41.92375001111110</north>
          <south>41.85263890000000</south>
          <east>32.75791665555556</east>
          <west>32.68680554444445</west>
        </LatLonAltBox>
        <Lod>
          <minLodPixels>128</minLodPixels>
          <maxLodPixels>-1</maxLodPixels>
        </Lod>
      </Region>
      <Link>
        <href>../../7/93/2.kml</href>
        <viewRefreshMode>onRegion</viewRefreshMode>
        <viewFormat/>
      </Link>
    </NetworkLink>
              </Document>
</kml>
    