<?xml version="1.0" encoding="utf-8"?>
<kml xmlns="http://www.opengis.net/kml/2.2">
  <Document>
    <name>6/46/19.kml</name>
    <description></description>
    <Style>
      <ListStyle id="hideChildren">
        <listItemType>checkHideChildren</listItemType>
      </ListStyle>
    </Style>
    <Region>
      <LatLonAltBox>
        <north>39.36375001111110</north>
        <south>39.22152778888888</south>
        <east>32.75791665555557</east>
        <west>32.61569443333335</west>
      </LatLonAltBox>
      <Lod>
        <minLodPixels>128</minLodPixels>
        <maxLodPixels>2048</maxLodPixels>
      </Lod>
    </Region>
    <GroundOverlay>
      <drawOrder>12</drawOrder>
      <Icon>
        <href>19.png</href>
      </Icon>
      <LatLonBox>
        <north>39.36375001111110</north>
        <south>39.22152778888888</south>
        <east>32.75791665555557</east>
        <west>32.61569443333335</west>
      </LatLonBox>
    </GroundOverlay>

    <NetworkLink>
      <name>7/92/39.png</name>
      <Region>
        <LatLonAltBox>
          <north>39.29263889999999</north>
          <south>39.22152778888888</south>
          <east>32.68680554444445</east>
          <west>32.61569443333335</west>
        </LatLonAltBox>
        <Lod>
          <minLodPixels>128</minLodPixels>
          <maxLodPixels>-1</maxLodPixels>
        </Lod>
      </Region>
      <Link>
        <href>../../7/92/39.kml</href>
        <viewRefreshMode>onRegion</viewRefreshMode>
        <viewFormat/>
      </Link>
    </NetworkLink>
        
    <NetworkLink>
      <name>7/93/39.png</name>
      <Region>
        <LatLonAltBox>
          <north>39.29263889999999</north>
          <south>39.22152778888888</south>
          <east>32.75791665555556</east>
          <west>32.68680554444445</west>
        </LatLonAltBox>
        <Lod>
          <minLodPixels>128</minLodPixels>
          <maxLodPixels>-1</maxLodPixels>
        </Lod>
      </Region>
      <Link>
        <href>../../7/93/39.kml</href>
        <viewRefreshMode>onRegion</viewRefreshMode>
        <viewFormat/>
      </Link>
    </NetworkLink>
        
    <NetworkLink>
      <name>7/92/38.png</name>
      <Region>
        <LatLonAltBox>
          <north>39.36375001111110</north>
          <south>39.29263889999999</south>
          <east>32.68680554444445</east>
          <west>32.61569443333335</west>
        </LatLonAltBox>
        <Lod>
          <minLodPixels>128</minLodPixels>
          <maxLodPixels>-1</maxLodPixels>
        </Lod>
      </Region>
      <Link>
        <href>../../7/92/38.kml</href>
        <viewRefreshMode>onRegion</viewRefreshMode>
        <viewFormat/>
      </Link>
    </NetworkLink>
        
    <NetworkLink>
      <name>7/93/38.png</name>
      <Region>
        <LatLonAltBox>
          <north>39.36375001111110</north>
          <south>39.29263889999999</south>
          <east>32.75791665555556</east>
          <west>32.68680554444445</west>
        </LatLonAltBox>
        <Lod>
          <minLodPixels>128</minLodPixels>
          <maxLodPixels>-1</maxLodPixels>
        </Lod>
      </Region>
      <Link>
        <href>../../7/93/38.kml</href>
        <viewRefreshMode>onRegion</viewRefreshMode>
        <viewFormat/>
      </Link>
    </NetworkLink>
              </Document>
</kml>
    