<?xml version="1.0" encoding="utf-8"?>
<kml xmlns="http://www.opengis.net/kml/2.2">
  <Document>
    <name>6/46/3.kml</name>
    <description></description>
    <Style>
      <ListStyle id="hideChildren">
        <listItemType>checkHideChildren</listItemType>
      </ListStyle>
    </Style>
    <Region>
      <LatLonAltBox>
        <north>41.63930556666666</north>
        <south>41.49708334444443</south>
        <east>32.75791665555557</east>
        <west>32.61569443333335</west>
      </LatLonAltBox>
      <Lod>
        <minLodPixels>128</minLodPixels>
        <maxLodPixels>2048</maxLodPixels>
      </Lod>
    </Region>
    <GroundOverlay>
      <drawOrder>12</drawOrder>
      <Icon>
        <href>3.png</href>
      </Icon>
      <LatLonBox>
        <north>41.63930556666666</north>
        <south>41.49708334444443</south>
        <east>32.75791665555557</east>
        <west>32.61569443333335</west>
      </LatLonBox>
    </GroundOverlay>

    <NetworkLink>
      <name>7/92/7.png</name>
      <Region>
        <LatLonAltBox>
          <north>41.56819445555555</north>
          <south>41.49708334444444</south>
          <east>32.68680554444445</east>
          <west>32.61569443333335</west>
        </LatLonAltBox>
        <Lod>
          <minLodPixels>128</minLodPixels>
          <maxLodPixels>-1</maxLodPixels>
        </Lod>
      </Region>
      <Link>
        <href>../../7/92/7.kml</href>
        <viewRefreshMode>onRegion</viewRefreshMode>
        <viewFormat/>
      </Link>
    </NetworkLink>
        
    <NetworkLink>
      <name>7/93/7.png</name>
      <Region>
        <LatLonAltBox>
          <north>41.56819445555555</north>
          <south>41.49708334444444</south>
          <east>32.75791665555556</east>
          <west>32.68680554444445</west>
        </LatLonAltBox>
        <Lod>
          <minLodPixels>128</minLodPixels>
          <maxLodPixels>-1</maxLodPixels>
        </Lod>
      </Region>
      <Link>
        <href>../../7/93/7.kml</href>
        <viewRefreshMode>onRegion</viewRefreshMode>
        <viewFormat/>
      </Link>
    </NetworkLink>
        
    <NetworkLink>
      <name>7/92/6.png</name>
      <Region>
        <LatLonAltBox>
          <north>41.63930556666666</north>
          <south>41.56819445555555</south>
          <east>32.68680554444445</east>
          <west>32.61569443333335</west>
        </LatLonAltBox>
        <Lod>
          <minLodPixels>128</minLodPixels>
          <maxLodPixels>-1</maxLodPixels>
        </Lod>
      </Region>
      <Link>
        <href>../../7/92/6.kml</href>
        <viewRefreshMode>onRegion</viewRefreshMode>
        <viewFormat/>
      </Link>
    </NetworkLink>
        
    <NetworkLink>
      <name>7/93/6.png</name>
      <Region>
        <LatLonAltBox>
          <north>41.63930556666666</north>
          <south>41.56819445555555</south>
          <east>32.75791665555556</east>
          <west>32.68680554444445</west>
        </LatLonAltBox>
        <Lod>
          <minLodPixels>128</minLodPixels>
          <maxLodPixels>-1</maxLodPixels>
        </Lod>
      </Region>
      <Link>
        <href>../../7/93/6.kml</href>
        <viewRefreshMode>onRegion</viewRefreshMode>
        <viewFormat/>
      </Link>
    </NetworkLink>
              </Document>
</kml>
    