<?xml version="1.0" encoding="utf-8"?>
<kml xmlns="http://www.opengis.net/kml/2.2">
  <Document>
    <name>4/2/4.kml</name>
    <description></description>
    <Style>
      <ListStyle id="hideChildren">
        <listItemType>checkHideChildren</listItemType>
      </ListStyle>
    </Style>
    <Region>
      <LatLonAltBox>
        <north>39.79041667777777</north>
        <south>39.22152778888888</south>
        <east>27.78013887777779</east>
        <west>27.21124998888890</west>
      </LatLonAltBox>
      <Lod>
        <minLodPixels>128</minLodPixels>
        <maxLodPixels>2048</maxLodPixels>
      </Lod>
    </Region>
    <GroundOverlay>
      <drawOrder>8</drawOrder>
      <Icon>
        <href>4.png</href>
      </Icon>
      <LatLonBox>
        <north>39.79041667777777</north>
        <south>39.22152778888888</south>
        <east>27.78013887777779</east>
        <west>27.21124998888890</west>
      </LatLonBox>
    </GroundOverlay>

    <NetworkLink>
      <name>5/4/9.png</name>
      <Region>
        <LatLonAltBox>
          <north>39.50597223333332</north>
          <south>39.22152778888888</south>
          <east>27.49569443333334</east>
          <west>27.21124998888890</west>
        </LatLonAltBox>
        <Lod>
          <minLodPixels>128</minLodPixels>
          <maxLodPixels>-1</maxLodPixels>
        </Lod>
      </Region>
      <Link>
        <href>../../5/4/9.kml</href>
        <viewRefreshMode>onRegion</viewRefreshMode>
        <viewFormat/>
      </Link>
    </NetworkLink>
        
    <NetworkLink>
      <name>5/5/9.png</name>
      <Region>
        <LatLonAltBox>
          <north>39.50597223333332</north>
          <south>39.22152778888888</south>
          <east>27.78013887777779</east>
          <west>27.49569443333334</west>
        </LatLonAltBox>
        <Lod>
          <minLodPixels>128</minLodPixels>
          <maxLodPixels>-1</maxLodPixels>
        </Lod>
      </Region>
      <Link>
        <href>../../5/5/9.kml</href>
        <viewRefreshMode>onRegion</viewRefreshMode>
        <viewFormat/>
      </Link>
    </NetworkLink>
        
    <NetworkLink>
      <name>5/4/8.png</name>
      <Region>
        <LatLonAltBox>
          <north>39.79041667777777</north>
          <south>39.50597223333332</south>
          <east>27.49569443333334</east>
          <west>27.21124998888890</west>
        </LatLonAltBox>
        <Lod>
          <minLodPixels>128</minLodPixels>
          <maxLodPixels>-1</maxLodPixels>
        </Lod>
      </Region>
      <Link>
        <href>../../5/4/8.kml</href>
        <viewRefreshMode>onRegion</viewRefreshMode>
        <viewFormat/>
      </Link>
    </NetworkLink>
        
    <NetworkLink>
      <name>5/5/8.png</name>
      <Region>
        <LatLonAltBox>
          <north>39.79041667777777</north>
          <south>39.50597223333332</south>
          <east>27.78013887777779</east>
          <west>27.49569443333334</west>
        </LatLonAltBox>
        <Lod>
          <minLodPixels>128</minLodPixels>
          <maxLodPixels>-1</maxLodPixels>
        </Lod>
      </Region>
      <Link>
        <href>../../5/5/8.kml</href>
        <viewRefreshMode>onRegion</viewRefreshMode>
        <viewFormat/>
      </Link>
    </NetworkLink>
              </Document>
</kml>
    