<?xml version="1.0" encoding="utf-8"?>
<kml xmlns="http://www.opengis.net/kml/2.2">
  <Document>
    <name>7/21/45.kml</name>
    <description></description>
    <Style>
      <ListStyle id="hideChildren">
        <listItemType>checkHideChildren</listItemType>
      </ListStyle>
    </Style>
    <Region>
      <LatLonAltBox>
        <north>38.86597223333332</north>
        <south>38.79486112222222</south>
        <east>27.63791665555557</east>
        <west>27.56680554444446</west>
      </LatLonAltBox>
      <Lod>
        <minLodPixels>128</minLodPixels>
        <maxLodPixels>-1</maxLodPixels>
      </Lod>
    </Region>
    <GroundOverlay>
      <drawOrder>14</drawOrder>
      <Icon>
        <href>45.png</href>
      </Icon>
      <LatLonBox>
        <north>38.86597223333332</north>
        <south>38.79486112222222</south>
        <east>27.63791665555557</east>
        <west>27.56680554444446</west>
      </LatLonBox>
    </GroundOverlay>
      </Document>
</kml>
    