<?xml version="1.0" encoding="utf-8"?>
<kml xmlns="http://www.opengis.net/kml/2.2">
  <Document>
    <name>7/19/1.kml</name>
    <description></description>
    <Style>
      <ListStyle id="hideChildren">
        <listItemType>checkHideChildren</listItemType>
      </ListStyle>
    </Style>
    <Region>
      <LatLonAltBox>
        <north>41.99486112222222</north>
        <south>41.92375001111111</south>
        <east>27.49569443333335</east>
        <west>27.42458332222224</west>
      </LatLonAltBox>
      <Lod>
        <minLodPixels>128</minLodPixels>
        <maxLodPixels>-1</maxLodPixels>
      </Lod>
    </Region>
    <GroundOverlay>
      <drawOrder>14</drawOrder>
      <Icon>
        <href>1.png</href>
      </Icon>
      <LatLonBox>
        <north>41.99486112222222</north>
        <south>41.92375001111111</south>
        <east>27.49569443333335</east>
        <west>27.42458332222224</west>
      </LatLonBox>
    </GroundOverlay>
      </Document>
</kml>
    