<?xml version="1.0" encoding="utf-8"?>
<kml xmlns="http://www.opengis.net/kml/2.2">
  <Document>
    <name>5/16/3.kml</name>
    <description></description>
    <Style>
      <ListStyle id="hideChildren">
        <listItemType>checkHideChildren</listItemType>
      </ListStyle>
    </Style>
    <Region>
      <LatLonAltBox>
        <north>41.21263889999999</north>
        <south>40.92819445555555</south>
        <east>30.90902776666668</east>
        <west>30.62458332222224</west>
      </LatLonAltBox>
      <Lod>
        <minLodPixels>128</minLodPixels>
        <maxLodPixels>2048</maxLodPixels>
      </Lod>
    </Region>
    <GroundOverlay>
      <drawOrder>10</drawOrder>
      <Icon>
        <href>3.png</href>
      </Icon>
      <LatLonBox>
        <north>41.21263889999999</north>
        <south>40.92819445555555</south>
        <east>30.90902776666668</east>
        <west>30.62458332222224</west>
      </LatLonBox>
    </GroundOverlay>

    <NetworkLink>
      <name>6/32/7.png</name>
      <Region>
        <LatLonAltBox>
          <north>41.07041667777777</north>
          <south>40.92819445555555</south>
          <east>30.76680554444446</east>
          <west>30.62458332222224</west>
        </LatLonAltBox>
        <Lod>
          <minLodPixels>128</minLodPixels>
          <maxLodPixels>-1</maxLodPixels>
        </Lod>
      </Region>
      <Link>
        <href>../../6/32/7.kml</href>
        <viewRefreshMode>onRegion</viewRefreshMode>
        <viewFormat/>
      </Link>
    </NetworkLink>
        
    <NetworkLink>
      <name>6/33/7.png</name>
      <Region>
        <LatLonAltBox>
          <north>41.07041667777777</north>
          <south>40.92819445555555</south>
          <east>30.90902776666668</east>
          <west>30.76680554444446</west>
        </LatLonAltBox>
        <Lod>
          <minLodPixels>128</minLodPixels>
          <maxLodPixels>-1</maxLodPixels>
        </Lod>
      </Region>
      <Link>
        <href>../../6/33/7.kml</href>
        <viewRefreshMode>onRegion</viewRefreshMode>
        <viewFormat/>
      </Link>
    </NetworkLink>
        
    <NetworkLink>
      <name>6/32/6.png</name>
      <Region>
        <LatLonAltBox>
          <north>41.21263889999999</north>
          <south>41.07041667777777</south>
          <east>30.76680554444446</east>
          <west>30.62458332222224</west>
        </LatLonAltBox>
        <Lod>
          <minLodPixels>128</minLodPixels>
          <maxLodPixels>-1</maxLodPixels>
        </Lod>
      </Region>
      <Link>
        <href>../../6/32/6.kml</href>
        <viewRefreshMode>onRegion</viewRefreshMode>
        <viewFormat/>
      </Link>
    </NetworkLink>
        
    <NetworkLink>
      <name>6/33/6.png</name>
      <Region>
        <LatLonAltBox>
          <north>41.21263889999999</north>
          <south>41.07041667777777</south>
          <east>30.90902776666668</east>
          <west>30.76680554444446</west>
        </LatLonAltBox>
        <Lod>
          <minLodPixels>128</minLodPixels>
          <maxLodPixels>-1</maxLodPixels>
        </Lod>
      </Region>
      <Link>
        <href>../../6/33/6.kml</href>
        <viewRefreshMode>onRegion</viewRefreshMode>
        <viewFormat/>
      </Link>
    </NetworkLink>
              </Document>
</kml>
    