<?xml version="1.0" encoding="utf-8"?>
<kml xmlns="http://www.opengis.net/kml/2.2">
  <Document>
    <name>5/0/8.kml</name>
    <description></description>
    <Style>
      <ListStyle id="hideChildren">
        <listItemType>checkHideChildren</listItemType>
      </ListStyle>
    </Style>
    <Region>
      <LatLonAltBox>
        <north>39.79041667777777</north>
        <south>39.50597223333332</south>
        <east>26.35791665555557</east>
        <west>26.07347221111112</west>
      </LatLonAltBox>
      <Lod>
        <minLodPixels>128</minLodPixels>
        <maxLodPixels>2048</maxLodPixels>
      </Lod>
    </Region>
    <GroundOverlay>
      <drawOrder>11</drawOrder>
      <Icon>
        <href>8.png</href>
      </Icon>
      <LatLonBox>
        <north>39.79041667777777</north>
        <south>39.50597223333332</south>
        <east>26.35791665555557</east>
        <west>26.07347221111112</west>
      </LatLonBox>
    </GroundOverlay>

    <NetworkLink>
      <name>6/0/17.png</name>
      <Region>
        <LatLonAltBox>
          <north>39.64819445555555</north>
          <south>39.50597223333332</south>
          <east>26.21569443333335</east>
          <west>26.07347221111112</west>
        </LatLonAltBox>
        <Lod>
          <minLodPixels>128</minLodPixels>
          <maxLodPixels>-1</maxLodPixels>
        </Lod>
      </Region>
      <Link>
        <href>../../6/0/17.kml</href>
        <viewRefreshMode>onRegion</viewRefreshMode>
        <viewFormat/>
      </Link>
    </NetworkLink>
        
    <NetworkLink>
      <name>6/1/17.png</name>
      <Region>
        <LatLonAltBox>
          <north>39.64819445555555</north>
          <south>39.50597223333332</south>
          <east>26.35791665555557</east>
          <west>26.21569443333335</west>
        </LatLonAltBox>
        <Lod>
          <minLodPixels>128</minLodPixels>
          <maxLodPixels>-1</maxLodPixels>
        </Lod>
      </Region>
      <Link>
        <href>../../6/1/17.kml</href>
        <viewRefreshMode>onRegion</viewRefreshMode>
        <viewFormat/>
      </Link>
    </NetworkLink>
        
    <NetworkLink>
      <name>6/0/16.png</name>
      <Region>
        <LatLonAltBox>
          <north>39.79041667777777</north>
          <south>39.64819445555555</south>
          <east>26.21569443333335</east>
          <west>26.07347221111112</west>
        </LatLonAltBox>
        <Lod>
          <minLodPixels>128</minLodPixels>
          <maxLodPixels>-1</maxLodPixels>
        </Lod>
      </Region>
      <Link>
        <href>../../6/0/16.kml</href>
        <viewRefreshMode>onRegion</viewRefreshMode>
        <viewFormat/>
      </Link>
    </NetworkLink>
        
    <NetworkLink>
      <name>6/1/16.png</name>
      <Region>
        <LatLonAltBox>
          <north>39.79041667777777</north>
          <south>39.64819445555555</south>
          <east>26.35791665555557</east>
          <west>26.21569443333335</west>
        </LatLonAltBox>
        <Lod>
          <minLodPixels>128</minLodPixels>
          <maxLodPixels>-1</maxLodPixels>
        </Lod>
      </Region>
      <Link>
        <href>../../6/1/16.kml</href>
        <viewRefreshMode>onRegion</viewRefreshMode>
        <viewFormat/>
      </Link>
    </NetworkLink>
              </Document>
</kml>
    