<?xml version="1.0" encoding="utf-8"?>
<kml xmlns="http://www.opengis.net/kml/2.2">
  <Document>
    <name>7/51/28.kml</name>
    <description></description>
    <Style>
      <ListStyle id="hideChildren">
        <listItemType>checkHideChildren</listItemType>
      </ListStyle>
    </Style>
    <Region>
      <LatLonAltBox>
        <north>40.07486112222222</north>
        <south>40.00375001111111</south>
        <east>29.77124998888890</east>
        <west>29.70013887777779</west>
      </LatLonAltBox>
      <Lod>
        <minLodPixels>128</minLodPixels>
        <maxLodPixels>-1</maxLodPixels>
      </Lod>
    </Region>
    <GroundOverlay>
      <drawOrder>14</drawOrder>
      <Icon>
        <href>28.png</href>
      </Icon>
      <LatLonBox>
        <north>40.07486112222222</north>
        <south>40.00375001111111</south>
        <east>29.77124998888890</east>
        <west>29.70013887777779</west>
      </LatLonBox>
    </GroundOverlay>
      </Document>
</kml>
    