<?xml version="1.0" encoding="utf-8"?>
<kml xmlns="http://www.opengis.net/kml/2.2">
  <Document>
    <name>6/48/18.kml</name>
    <description></description>
    <Style>
      <ListStyle id="hideChildren">
        <listItemType>checkHideChildren</listItemType>
      </ListStyle>
    </Style>
    <Region>
      <LatLonAltBox>
        <north>39.50597223333332</north>
        <south>39.36375001111110</south>
        <east>33.04236110000002</east>
        <west>32.90013887777779</west>
      </LatLonAltBox>
      <Lod>
        <minLodPixels>128</minLodPixels>
        <maxLodPixels>2048</maxLodPixels>
      </Lod>
    </Region>
    <GroundOverlay>
      <drawOrder>12</drawOrder>
      <Icon>
        <href>18.png</href>
      </Icon>
      <LatLonBox>
        <north>39.50597223333332</north>
        <south>39.36375001111110</south>
        <east>33.04236110000002</east>
        <west>32.90013887777779</west>
      </LatLonBox>
    </GroundOverlay>

    <NetworkLink>
      <name>7/96/37.png</name>
      <Region>
        <LatLonAltBox>
          <north>39.43486112222222</north>
          <south>39.36375001111111</south>
          <east>32.97124998888890</east>
          <west>32.90013887777779</west>
        </LatLonAltBox>
        <Lod>
          <minLodPixels>128</minLodPixels>
          <maxLodPixels>-1</maxLodPixels>
        </Lod>
      </Region>
      <Link>
        <href>../../7/96/37.kml</href>
        <viewRefreshMode>onRegion</viewRefreshMode>
        <viewFormat/>
      </Link>
    </NetworkLink>
        
    <NetworkLink>
      <name>7/97/37.png</name>
      <Region>
        <LatLonAltBox>
          <north>39.43486112222222</north>
          <south>39.36375001111111</south>
          <east>33.04236110000001</east>
          <west>32.97124998888890</west>
        </LatLonAltBox>
        <Lod>
          <minLodPixels>128</minLodPixels>
          <maxLodPixels>-1</maxLodPixels>
        </Lod>
      </Region>
      <Link>
        <href>../../7/97/37.kml</href>
        <viewRefreshMode>onRegion</viewRefreshMode>
        <viewFormat/>
      </Link>
    </NetworkLink>
        
    <NetworkLink>
      <name>7/96/36.png</name>
      <Region>
        <LatLonAltBox>
          <north>39.50597223333332</north>
          <south>39.43486112222222</south>
          <east>32.97124998888890</east>
          <west>32.90013887777779</west>
        </LatLonAltBox>
        <Lod>
          <minLodPixels>128</minLodPixels>
          <maxLodPixels>-1</maxLodPixels>
        </Lod>
      </Region>
      <Link>
        <href>../../7/96/36.kml</href>
        <viewRefreshMode>onRegion</viewRefreshMode>
        <viewFormat/>
      </Link>
    </NetworkLink>
        
    <NetworkLink>
      <name>7/97/36.png</name>
      <Region>
        <LatLonAltBox>
          <north>39.50597223333332</north>
          <south>39.43486112222222</south>
          <east>33.04236110000001</east>
          <west>32.97124998888890</west>
        </LatLonAltBox>
        <Lod>
          <minLodPixels>128</minLodPixels>
          <maxLodPixels>-1</maxLodPixels>
        </Lod>
      </Region>
      <Link>
        <href>../../7/97/36.kml</href>
        <viewRefreshMode>onRegion</viewRefreshMode>
        <viewFormat/>
      </Link>
    </NetworkLink>
              </Document>
</kml>
    