<?xml version="1.0" encoding="utf-8"?>
<kml xmlns="http://www.opengis.net/kml/2.2">
  <Document>
    <name>4/11/0.kml</name>
    <description></description>
    <Style>
      <ListStyle id="hideChildren">
        <listItemType>checkHideChildren</listItemType>
      </ListStyle>
    </Style>
    <Region>
      <LatLonAltBox>
        <north>42.06597223333333</north>
        <south>41.49708334444444</south>
        <east>32.90013887777778</east>
        <west>32.33124998888890</west>
      </LatLonAltBox>
      <Lod>
        <minLodPixels>128</minLodPixels>
        <maxLodPixels>2048</maxLodPixels>
      </Lod>
    </Region>
    <GroundOverlay>
      <drawOrder>8</drawOrder>
      <Icon>
        <href>0.png</href>
      </Icon>
      <LatLonBox>
        <north>42.06597223333333</north>
        <south>41.49708334444444</south>
        <east>32.90013887777778</east>
        <west>32.33124998888890</west>
      </LatLonBox>
    </GroundOverlay>

    <NetworkLink>
      <name>5/22/1.png</name>
      <Region>
        <LatLonAltBox>
          <north>41.78152778888888</north>
          <south>41.49708334444443</south>
          <east>32.61569443333335</east>
          <west>32.33124998888890</west>
        </LatLonAltBox>
        <Lod>
          <minLodPixels>128</minLodPixels>
          <maxLodPixels>-1</maxLodPixels>
        </Lod>
      </Region>
      <Link>
        <href>../../5/22/1.kml</href>
        <viewRefreshMode>onRegion</viewRefreshMode>
        <viewFormat/>
      </Link>
    </NetworkLink>
        
    <NetworkLink>
      <name>5/23/1.png</name>
      <Region>
        <LatLonAltBox>
          <north>41.78152778888888</north>
          <south>41.49708334444443</south>
          <east>32.90013887777779</east>
          <west>32.61569443333335</west>
        </LatLonAltBox>
        <Lod>
          <minLodPixels>128</minLodPixels>
          <maxLodPixels>-1</maxLodPixels>
        </Lod>
      </Region>
      <Link>
        <href>../../5/23/1.kml</href>
        <viewRefreshMode>onRegion</viewRefreshMode>
        <viewFormat/>
      </Link>
    </NetworkLink>
        
    <NetworkLink>
      <name>5/22/0.png</name>
      <Region>
        <LatLonAltBox>
          <north>42.06597223333333</north>
          <south>41.78152778888888</south>
          <east>32.61569443333335</east>
          <west>32.33124998888890</west>
        </LatLonAltBox>
        <Lod>
          <minLodPixels>128</minLodPixels>
          <maxLodPixels>-1</maxLodPixels>
        </Lod>
      </Region>
      <Link>
        <href>../../5/22/0.kml</href>
        <viewRefreshMode>onRegion</viewRefreshMode>
        <viewFormat/>
      </Link>
    </NetworkLink>
        
    <NetworkLink>
      <name>5/23/0.png</name>
      <Region>
        <LatLonAltBox>
          <north>42.06597223333333</north>
          <south>41.78152778888888</south>
          <east>32.90013887777779</east>
          <west>32.61569443333335</west>
        </LatLonAltBox>
        <Lod>
          <minLodPixels>128</minLodPixels>
          <maxLodPixels>-1</maxLodPixels>
        </Lod>
      </Region>
      <Link>
        <href>../../5/23/0.kml</href>
        <viewRefreshMode>onRegion</viewRefreshMode>
        <viewFormat/>
      </Link>
    </NetworkLink>
              </Document>
</kml>
    