<?xml version="1.0" encoding="utf-8"?>
<kml xmlns="http://www.opengis.net/kml/2.2">
  <Document>
    <name>4/3/1.kml</name>
    <description></description>
    <Style>
      <ListStyle id="hideChildren">
        <listItemType>checkHideChildren</listItemType>
      </ListStyle>
    </Style>
    <Region>
      <LatLonAltBox>
        <north>41.49708334444444</north>
        <south>40.92819445555556</south>
        <east>28.34902776666668</east>
        <west>27.78013887777779</west>
      </LatLonAltBox>
      <Lod>
        <minLodPixels>128</minLodPixels>
        <maxLodPixels>2048</maxLodPixels>
      </Lod>
    </Region>
    <GroundOverlay>
      <drawOrder>8</drawOrder>
      <Icon>
        <href>1.png</href>
      </Icon>
      <LatLonBox>
        <north>41.49708334444444</north>
        <south>40.92819445555556</south>
        <east>28.34902776666668</east>
        <west>27.78013887777779</west>
      </LatLonBox>
    </GroundOverlay>

    <NetworkLink>
      <name>5/6/3.png</name>
      <Region>
        <LatLonAltBox>
          <north>41.21263889999999</north>
          <south>40.92819445555555</south>
          <east>28.06458332222223</east>
          <west>27.78013887777779</west>
        </LatLonAltBox>
        <Lod>
          <minLodPixels>128</minLodPixels>
          <maxLodPixels>-1</maxLodPixels>
        </Lod>
      </Region>
      <Link>
        <href>../../5/6/3.kml</href>
        <viewRefreshMode>onRegion</viewRefreshMode>
        <viewFormat/>
      </Link>
    </NetworkLink>
        
    <NetworkLink>
      <name>5/7/3.png</name>
      <Region>
        <LatLonAltBox>
          <north>41.21263889999999</north>
          <south>40.92819445555555</south>
          <east>28.34902776666668</east>
          <west>28.06458332222223</west>
        </LatLonAltBox>
        <Lod>
          <minLodPixels>128</minLodPixels>
          <maxLodPixels>-1</maxLodPixels>
        </Lod>
      </Region>
      <Link>
        <href>../../5/7/3.kml</href>
        <viewRefreshMode>onRegion</viewRefreshMode>
        <viewFormat/>
      </Link>
    </NetworkLink>
        
    <NetworkLink>
      <name>5/6/2.png</name>
      <Region>
        <LatLonAltBox>
          <north>41.49708334444444</north>
          <south>41.21263889999999</south>
          <east>28.06458332222223</east>
          <west>27.78013887777779</west>
        </LatLonAltBox>
        <Lod>
          <minLodPixels>128</minLodPixels>
          <maxLodPixels>-1</maxLodPixels>
        </Lod>
      </Region>
      <Link>
        <href>../../5/6/2.kml</href>
        <viewRefreshMode>onRegion</viewRefreshMode>
        <viewFormat/>
      </Link>
    </NetworkLink>
        
    <NetworkLink>
      <name>5/7/2.png</name>
      <Region>
        <LatLonAltBox>
          <north>41.49708334444444</north>
          <south>41.21263889999999</south>
          <east>28.34902776666668</east>
          <west>28.06458332222223</west>
        </LatLonAltBox>
        <Lod>
          <minLodPixels>128</minLodPixels>
          <maxLodPixels>-1</maxLodPixels>
        </Lod>
      </Region>
      <Link>
        <href>../../5/7/2.kml</href>
        <viewRefreshMode>onRegion</viewRefreshMode>
        <viewFormat/>
      </Link>
    </NetworkLink>
              </Document>
</kml>
    