<?xml version="1.0" encoding="utf-8"?>
<kml xmlns="http://www.opengis.net/kml/2.2">
  <Document>
    <name>7/26/34.kml</name>
    <description></description>
    <Style>
      <ListStyle id="hideChildren">
        <listItemType>checkHideChildren</listItemType>
      </ListStyle>
    </Style>
    <Region>
      <LatLonAltBox>
        <north>39.64819445555555</north>
        <south>39.57708334444444</south>
        <east>27.99347221111113</east>
        <west>27.92236110000001</west>
      </LatLonAltBox>
      <Lod>
        <minLodPixels>128</minLodPixels>
        <maxLodPixels>-1</maxLodPixels>
      </Lod>
    </Region>
    <GroundOverlay>
      <drawOrder>14</drawOrder>
      <Icon>
        <href>34.png</href>
      </Icon>
      <LatLonBox>
        <north>39.64819445555555</north>
        <south>39.57708334444444</south>
        <east>27.99347221111113</east>
        <west>27.92236110000001</west>
      </LatLonBox>
    </GroundOverlay>
      </Document>
</kml>
    