<?xml version="1.0" encoding="utf-8"?>
<kml xmlns="http://www.opengis.net/kml/2.2">
  <Document>
    <name>6/4/20.kml</name>
    <description></description>
    <Style>
      <ListStyle id="hideChildren">
        <listItemType>checkHideChildren</listItemType>
      </ListStyle>
    </Style>
    <Region>
      <LatLonAltBox>
        <north>39.22152778888888</north>
        <south>39.07930556666666</south>
        <east>26.78458332222224</east>
        <west>26.64236110000001</west>
      </LatLonAltBox>
      <Lod>
        <minLodPixels>128</minLodPixels>
        <maxLodPixels>2048</maxLodPixels>
      </Lod>
    </Region>
    <GroundOverlay>
      <drawOrder>12</drawOrder>
      <Icon>
        <href>20.png</href>
      </Icon>
      <LatLonBox>
        <north>39.22152778888888</north>
        <south>39.07930556666666</south>
        <east>26.78458332222224</east>
        <west>26.64236110000001</west>
      </LatLonBox>
    </GroundOverlay>

    <NetworkLink>
      <name>7/8/41.png</name>
      <Region>
        <LatLonAltBox>
          <north>39.15041667777777</north>
          <south>39.07930556666666</south>
          <east>26.71347221111112</east>
          <west>26.64236110000001</west>
        </LatLonAltBox>
        <Lod>
          <minLodPixels>128</minLodPixels>
          <maxLodPixels>-1</maxLodPixels>
        </Lod>
      </Region>
      <Link>
        <href>../../7/8/41.kml</href>
        <viewRefreshMode>onRegion</viewRefreshMode>
        <viewFormat/>
      </Link>
    </NetworkLink>
        
    <NetworkLink>
      <name>7/9/41.png</name>
      <Region>
        <LatLonAltBox>
          <north>39.15041667777777</north>
          <south>39.07930556666666</south>
          <east>26.78458332222224</east>
          <west>26.71347221111112</west>
        </LatLonAltBox>
        <Lod>
          <minLodPixels>128</minLodPixels>
          <maxLodPixels>-1</maxLodPixels>
        </Lod>
      </Region>
      <Link>
        <href>../../7/9/41.kml</href>
        <viewRefreshMode>onRegion</viewRefreshMode>
        <viewFormat/>
      </Link>
    </NetworkLink>
        
    <NetworkLink>
      <name>7/8/40.png</name>
      <Region>
        <LatLonAltBox>
          <north>39.22152778888888</north>
          <south>39.15041667777778</south>
          <east>26.71347221111112</east>
          <west>26.64236110000001</west>
        </LatLonAltBox>
        <Lod>
          <minLodPixels>128</minLodPixels>
          <maxLodPixels>-1</maxLodPixels>
        </Lod>
      </Region>
      <Link>
        <href>../../7/8/40.kml</href>
        <viewRefreshMode>onRegion</viewRefreshMode>
        <viewFormat/>
      </Link>
    </NetworkLink>
        
    <NetworkLink>
      <name>7/9/40.png</name>
      <Region>
        <LatLonAltBox>
          <north>39.22152778888888</north>
          <south>39.15041667777778</south>
          <east>26.78458332222224</east>
          <west>26.71347221111112</west>
        </LatLonAltBox>
        <Lod>
          <minLodPixels>128</minLodPixels>
          <maxLodPixels>-1</maxLodPixels>
        </Lod>
      </Region>
      <Link>
        <href>../../7/9/40.kml</href>
        <viewRefreshMode>onRegion</viewRefreshMode>
        <viewFormat/>
      </Link>
    </NetworkLink>
              </Document>
</kml>
    