<?xml version="1.0" encoding="utf-8"?>
<kml xmlns="http://www.opengis.net/kml/2.2">
  <Document>
    <name>6/0/21.kml</name>
    <description></description>
    <Style>
      <ListStyle id="hideChildren">
        <listItemType>checkHideChildren</listItemType>
      </ListStyle>
    </Style>
    <Region>
      <LatLonAltBox>
        <north>39.07930556666666</north>
        <south>38.93708334444444</south>
        <east>26.21569443333335</east>
        <west>26.07347221111112</west>
      </LatLonAltBox>
      <Lod>
        <minLodPixels>128</minLodPixels>
        <maxLodPixels>2048</maxLodPixels>
      </Lod>
    </Region>
    <GroundOverlay>
      <drawOrder>13</drawOrder>
      <Icon>
        <href>21.png</href>
      </Icon>
      <LatLonBox>
        <north>39.07930556666666</north>
        <south>38.93708334444444</south>
        <east>26.21569443333335</east>
        <west>26.07347221111112</west>
      </LatLonBox>
    </GroundOverlay>

    <NetworkLink>
      <name>7/0/43.png</name>
      <Region>
        <LatLonAltBox>
          <north>39.00819445555555</north>
          <south>38.93708334444444</south>
          <east>26.14458332222224</east>
          <west>26.07347221111112</west>
        </LatLonAltBox>
        <Lod>
          <minLodPixels>128</minLodPixels>
          <maxLodPixels>-1</maxLodPixels>
        </Lod>
      </Region>
      <Link>
        <href>../../7/0/43.kml</href>
        <viewRefreshMode>onRegion</viewRefreshMode>
        <viewFormat/>
      </Link>
    </NetworkLink>
        
    <NetworkLink>
      <name>7/1/43.png</name>
      <Region>
        <LatLonAltBox>
          <north>39.00819445555555</north>
          <south>38.93708334444444</south>
          <east>26.21569443333335</east>
          <west>26.14458332222224</west>
        </LatLonAltBox>
        <Lod>
          <minLodPixels>128</minLodPixels>
          <maxLodPixels>-1</maxLodPixels>
        </Lod>
      </Region>
      <Link>
        <href>../../7/1/43.kml</href>
        <viewRefreshMode>onRegion</viewRefreshMode>
        <viewFormat/>
      </Link>
    </NetworkLink>
        
    <NetworkLink>
      <name>7/0/42.png</name>
      <Region>
        <LatLonAltBox>
          <north>39.07930556666666</north>
          <south>39.00819445555555</south>
          <east>26.14458332222224</east>
          <west>26.07347221111112</west>
        </LatLonAltBox>
        <Lod>
          <minLodPixels>128</minLodPixels>
          <maxLodPixels>-1</maxLodPixels>
        </Lod>
      </Region>
      <Link>
        <href>../../7/0/42.kml</href>
        <viewRefreshMode>onRegion</viewRefreshMode>
        <viewFormat/>
      </Link>
    </NetworkLink>
        
    <NetworkLink>
      <name>7/1/42.png</name>
      <Region>
        <LatLonAltBox>
          <north>39.07930556666666</north>
          <south>39.00819445555555</south>
          <east>26.21569443333335</east>
          <west>26.14458332222224</west>
        </LatLonAltBox>
        <Lod>
          <minLodPixels>128</minLodPixels>
          <maxLodPixels>-1</maxLodPixels>
        </Lod>
      </Region>
      <Link>
        <href>../../7/1/42.kml</href>
        <viewRefreshMode>onRegion</viewRefreshMode>
        <viewFormat/>
      </Link>
    </NetworkLink>
              </Document>
</kml>
    