<?xml version="1.0" encoding="utf-8"?>
<kml xmlns="http://www.opengis.net/kml/2.2">
  <Document>
    <name>6/6/0.kml</name>
    <description></description>
    <Style>
      <ListStyle id="hideChildren">
        <listItemType>checkHideChildren</listItemType>
      </ListStyle>
    </Style>
    <Region>
      <LatLonAltBox>
        <north>42.06597223333333</north>
        <south>41.92375001111110</south>
        <east>27.06902776666668</east>
        <west>26.92680554444446</west>
      </LatLonAltBox>
      <Lod>
        <minLodPixels>128</minLodPixels>
        <maxLodPixels>2048</maxLodPixels>
      </Lod>
    </Region>
    <GroundOverlay>
      <drawOrder>12</drawOrder>
      <Icon>
        <href>0.png</href>
      </Icon>
      <LatLonBox>
        <north>42.06597223333333</north>
        <south>41.92375001111110</south>
        <east>27.06902776666668</east>
        <west>26.92680554444446</west>
      </LatLonBox>
    </GroundOverlay>

    <NetworkLink>
      <name>7/12/1.png</name>
      <Region>
        <LatLonAltBox>
          <north>41.99486112222222</north>
          <south>41.92375001111111</south>
          <east>26.99791665555557</east>
          <west>26.92680554444446</west>
        </LatLonAltBox>
        <Lod>
          <minLodPixels>128</minLodPixels>
          <maxLodPixels>-1</maxLodPixels>
        </Lod>
      </Region>
      <Link>
        <href>../../7/12/1.kml</href>
        <viewRefreshMode>onRegion</viewRefreshMode>
        <viewFormat/>
      </Link>
    </NetworkLink>
        
    <NetworkLink>
      <name>7/13/1.png</name>
      <Region>
        <LatLonAltBox>
          <north>41.99486112222222</north>
          <south>41.92375001111111</south>
          <east>27.06902776666668</east>
          <west>26.99791665555557</west>
        </LatLonAltBox>
        <Lod>
          <minLodPixels>128</minLodPixels>
          <maxLodPixels>-1</maxLodPixels>
        </Lod>
      </Region>
      <Link>
        <href>../../7/13/1.kml</href>
        <viewRefreshMode>onRegion</viewRefreshMode>
        <viewFormat/>
      </Link>
    </NetworkLink>
        
    <NetworkLink>
      <name>7/12/0.png</name>
      <Region>
        <LatLonAltBox>
          <north>42.06597223333333</north>
          <south>41.99486112222222</south>
          <east>26.99791665555557</east>
          <west>26.92680554444446</west>
        </LatLonAltBox>
        <Lod>
          <minLodPixels>128</minLodPixels>
          <maxLodPixels>-1</maxLodPixels>
        </Lod>
      </Region>
      <Link>
        <href>../../7/12/0.kml</href>
        <viewRefreshMode>onRegion</viewRefreshMode>
        <viewFormat/>
      </Link>
    </NetworkLink>
        
    <NetworkLink>
      <name>7/13/0.png</name>
      <Region>
        <LatLonAltBox>
          <north>42.06597223333333</north>
          <south>41.99486112222222</south>
          <east>27.06902776666668</east>
          <west>26.99791665555557</west>
        </LatLonAltBox>
        <Lod>
          <minLodPixels>128</minLodPixels>
          <maxLodPixels>-1</maxLodPixels>
        </Lod>
      </Region>
      <Link>
        <href>../../7/13/0.kml</href>
        <viewRefreshMode>onRegion</viewRefreshMode>
        <viewFormat/>
      </Link>
    </NetworkLink>
              </Document>
</kml>
    