<?xml version="1.0" encoding="utf-8"?>
<kml xmlns="http://www.opengis.net/kml/2.2">
  <Document>
    <name>6/6/4.kml</name>
    <description></description>
    <Style>
      <ListStyle id="hideChildren">
        <listItemType>checkHideChildren</listItemType>
      </ListStyle>
    </Style>
    <Region>
      <LatLonAltBox>
        <north>41.49708334444444</north>
        <south>41.35486112222222</south>
        <east>27.06902776666668</east>
        <west>26.92680554444446</west>
      </LatLonAltBox>
      <Lod>
        <minLodPixels>128</minLodPixels>
        <maxLodPixels>2048</maxLodPixels>
      </Lod>
    </Region>
    <GroundOverlay>
      <drawOrder>12</drawOrder>
      <Icon>
        <href>4.png</href>
      </Icon>
      <LatLonBox>
        <north>41.49708334444444</north>
        <south>41.35486112222222</south>
        <east>27.06902776666668</east>
        <west>26.92680554444446</west>
      </LatLonBox>
    </GroundOverlay>

    <NetworkLink>
      <name>7/12/9.png</name>
      <Region>
        <LatLonAltBox>
          <north>41.42597223333333</north>
          <south>41.35486112222222</south>
          <east>26.99791665555557</east>
          <west>26.92680554444446</west>
        </LatLonAltBox>
        <Lod>
          <minLodPixels>128</minLodPixels>
          <maxLodPixels>-1</maxLodPixels>
        </Lod>
      </Region>
      <Link>
        <href>../../7/12/9.kml</href>
        <viewRefreshMode>onRegion</viewRefreshMode>
        <viewFormat/>
      </Link>
    </NetworkLink>
        
    <NetworkLink>
      <name>7/13/9.png</name>
      <Region>
        <LatLonAltBox>
          <north>41.42597223333333</north>
          <south>41.35486112222222</south>
          <east>27.06902776666668</east>
          <west>26.99791665555557</west>
        </LatLonAltBox>
        <Lod>
          <minLodPixels>128</minLodPixels>
          <maxLodPixels>-1</maxLodPixels>
        </Lod>
      </Region>
      <Link>
        <href>../../7/13/9.kml</href>
        <viewRefreshMode>onRegion</viewRefreshMode>
        <viewFormat/>
      </Link>
    </NetworkLink>
        
    <NetworkLink>
      <name>7/12/8.png</name>
      <Region>
        <LatLonAltBox>
          <north>41.49708334444444</north>
          <south>41.42597223333333</south>
          <east>26.99791665555557</east>
          <west>26.92680554444446</west>
        </LatLonAltBox>
        <Lod>
          <minLodPixels>128</minLodPixels>
          <maxLodPixels>-1</maxLodPixels>
        </Lod>
      </Region>
      <Link>
        <href>../../7/12/8.kml</href>
        <viewRefreshMode>onRegion</viewRefreshMode>
        <viewFormat/>
      </Link>
    </NetworkLink>
        
    <NetworkLink>
      <name>7/13/8.png</name>
      <Region>
        <LatLonAltBox>
          <north>41.49708334444444</north>
          <south>41.42597223333333</south>
          <east>27.06902776666668</east>
          <west>26.99791665555557</west>
        </LatLonAltBox>
        <Lod>
          <minLodPixels>128</minLodPixels>
          <maxLodPixels>-1</maxLodPixels>
        </Lod>
      </Region>
      <Link>
        <href>../../7/13/8.kml</href>
        <viewRefreshMode>onRegion</viewRefreshMode>
        <viewFormat/>
      </Link>
    </NetworkLink>
              </Document>
</kml>
    