<?xml version="1.0" encoding="utf-8"?>
<kml xmlns="http://www.opengis.net/kml/2.2">
  <Document>
    <name>5/19/9.kml</name>
    <description></description>
    <Style>
      <ListStyle id="hideChildren">
        <listItemType>checkHideChildren</listItemType>
      </ListStyle>
    </Style>
    <Region>
      <LatLonAltBox>
        <north>39.50597223333332</north>
        <south>39.22152778888888</south>
        <east>31.76236110000001</east>
        <west>31.47791665555557</west>
      </LatLonAltBox>
      <Lod>
        <minLodPixels>128</minLodPixels>
        <maxLodPixels>2048</maxLodPixels>
      </Lod>
    </Region>
    <GroundOverlay>
      <drawOrder>10</drawOrder>
      <Icon>
        <href>9.png</href>
      </Icon>
      <LatLonBox>
        <north>39.50597223333332</north>
        <south>39.22152778888888</south>
        <east>31.76236110000001</east>
        <west>31.47791665555557</west>
      </LatLonBox>
    </GroundOverlay>

    <NetworkLink>
      <name>6/38/19.png</name>
      <Region>
        <LatLonAltBox>
          <north>39.36375001111110</north>
          <south>39.22152778888888</south>
          <east>31.62013887777779</east>
          <west>31.47791665555557</west>
        </LatLonAltBox>
        <Lod>
          <minLodPixels>128</minLodPixels>
          <maxLodPixels>-1</maxLodPixels>
        </Lod>
      </Region>
      <Link>
        <href>../../6/38/19.kml</href>
        <viewRefreshMode>onRegion</viewRefreshMode>
        <viewFormat/>
      </Link>
    </NetworkLink>
        
    <NetworkLink>
      <name>6/39/19.png</name>
      <Region>
        <LatLonAltBox>
          <north>39.36375001111110</north>
          <south>39.22152778888888</south>
          <east>31.76236110000001</east>
          <west>31.62013887777779</west>
        </LatLonAltBox>
        <Lod>
          <minLodPixels>128</minLodPixels>
          <maxLodPixels>-1</maxLodPixels>
        </Lod>
      </Region>
      <Link>
        <href>../../6/39/19.kml</href>
        <viewRefreshMode>onRegion</viewRefreshMode>
        <viewFormat/>
      </Link>
    </NetworkLink>
        
    <NetworkLink>
      <name>6/38/18.png</name>
      <Region>
        <LatLonAltBox>
          <north>39.50597223333332</north>
          <south>39.36375001111110</south>
          <east>31.62013887777779</east>
          <west>31.47791665555557</west>
        </LatLonAltBox>
        <Lod>
          <minLodPixels>128</minLodPixels>
          <maxLodPixels>-1</maxLodPixels>
        </Lod>
      </Region>
      <Link>
        <href>../../6/38/18.kml</href>
        <viewRefreshMode>onRegion</viewRefreshMode>
        <viewFormat/>
      </Link>
    </NetworkLink>
        
    <NetworkLink>
      <name>6/39/18.png</name>
      <Region>
        <LatLonAltBox>
          <north>39.50597223333332</north>
          <south>39.36375001111110</south>
          <east>31.76236110000001</east>
          <west>31.62013887777779</west>
        </LatLonAltBox>
        <Lod>
          <minLodPixels>128</minLodPixels>
          <maxLodPixels>-1</maxLodPixels>
        </Lod>
      </Region>
      <Link>
        <href>../../6/39/18.kml</href>
        <viewRefreshMode>onRegion</viewRefreshMode>
        <viewFormat/>
      </Link>
    </NetworkLink>
              </Document>
</kml>
    