<?xml version="1.0" encoding="utf-8"?>
<kml xmlns="http://www.opengis.net/kml/2.2">
  <Document>
    <name>5/3/6.kml</name>
    <description></description>
    <Style>
      <ListStyle id="hideChildren">
        <listItemType>checkHideChildren</listItemType>
      </ListStyle>
    </Style>
    <Region>
      <LatLonAltBox>
        <north>40.35930556666666</north>
        <south>40.07486112222222</south>
        <east>27.21124998888890</east>
        <west>26.92680554444446</west>
      </LatLonAltBox>
      <Lod>
        <minLodPixels>128</minLodPixels>
        <maxLodPixels>2048</maxLodPixels>
      </Lod>
    </Region>
    <GroundOverlay>
      <drawOrder>10</drawOrder>
      <Icon>
        <href>6.png</href>
      </Icon>
      <LatLonBox>
        <north>40.35930556666666</north>
        <south>40.07486112222222</south>
        <east>27.21124998888890</east>
        <west>26.92680554444446</west>
      </LatLonBox>
    </GroundOverlay>

    <NetworkLink>
      <name>6/6/13.png</name>
      <Region>
        <LatLonAltBox>
          <north>40.21708334444444</north>
          <south>40.07486112222222</south>
          <east>27.06902776666668</east>
          <west>26.92680554444446</west>
        </LatLonAltBox>
        <Lod>
          <minLodPixels>128</minLodPixels>
          <maxLodPixels>-1</maxLodPixels>
        </Lod>
      </Region>
      <Link>
        <href>../../6/6/13.kml</href>
        <viewRefreshMode>onRegion</viewRefreshMode>
        <viewFormat/>
      </Link>
    </NetworkLink>
        
    <NetworkLink>
      <name>6/7/13.png</name>
      <Region>
        <LatLonAltBox>
          <north>40.21708334444444</north>
          <south>40.07486112222222</south>
          <east>27.21124998888890</east>
          <west>27.06902776666668</west>
        </LatLonAltBox>
        <Lod>
          <minLodPixels>128</minLodPixels>
          <maxLodPixels>-1</maxLodPixels>
        </Lod>
      </Region>
      <Link>
        <href>../../6/7/13.kml</href>
        <viewRefreshMode>onRegion</viewRefreshMode>
        <viewFormat/>
      </Link>
    </NetworkLink>
        
    <NetworkLink>
      <name>6/6/12.png</name>
      <Region>
        <LatLonAltBox>
          <north>40.35930556666666</north>
          <south>40.21708334444444</south>
          <east>27.06902776666668</east>
          <west>26.92680554444446</west>
        </LatLonAltBox>
        <Lod>
          <minLodPixels>128</minLodPixels>
          <maxLodPixels>-1</maxLodPixels>
        </Lod>
      </Region>
      <Link>
        <href>../../6/6/12.kml</href>
        <viewRefreshMode>onRegion</viewRefreshMode>
        <viewFormat/>
      </Link>
    </NetworkLink>
        
    <NetworkLink>
      <name>6/7/12.png</name>
      <Region>
        <LatLonAltBox>
          <north>40.35930556666666</north>
          <south>40.21708334444444</south>
          <east>27.21124998888890</east>
          <west>27.06902776666668</west>
        </LatLonAltBox>
        <Lod>
          <minLodPixels>128</minLodPixels>
          <maxLodPixels>-1</maxLodPixels>
        </Lod>
      </Region>
      <Link>
        <href>../../6/7/12.kml</href>
        <viewRefreshMode>onRegion</viewRefreshMode>
        <viewFormat/>
      </Link>
    </NetworkLink>
              </Document>
</kml>
    