<?xml version="1.0" encoding="utf-8"?>
<kml xmlns="http://www.opengis.net/kml/2.2">
  <Document>
    <name>4/9/2.kml</name>
    <description></description>
    <Style>
      <ListStyle id="hideChildren">
        <listItemType>checkHideChildren</listItemType>
      </ListStyle>
    </Style>
    <Region>
      <LatLonAltBox>
        <north>40.92819445555555</north>
        <south>40.35930556666666</south>
        <east>31.76236110000001</east>
        <west>31.19347221111112</west>
      </LatLonAltBox>
      <Lod>
        <minLodPixels>128</minLodPixels>
        <maxLodPixels>2048</maxLodPixels>
      </Lod>
    </Region>
    <GroundOverlay>
      <drawOrder>8</drawOrder>
      <Icon>
        <href>2.png</href>
      </Icon>
      <LatLonBox>
        <north>40.92819445555555</north>
        <south>40.35930556666666</south>
        <east>31.76236110000001</east>
        <west>31.19347221111112</west>
      </LatLonBox>
    </GroundOverlay>

    <NetworkLink>
      <name>5/18/5.png</name>
      <Region>
        <LatLonAltBox>
          <north>40.64375001111110</north>
          <south>40.35930556666666</south>
          <east>31.47791665555557</east>
          <west>31.19347221111112</west>
        </LatLonAltBox>
        <Lod>
          <minLodPixels>128</minLodPixels>
          <maxLodPixels>-1</maxLodPixels>
        </Lod>
      </Region>
      <Link>
        <href>../../5/18/5.kml</href>
        <viewRefreshMode>onRegion</viewRefreshMode>
        <viewFormat/>
      </Link>
    </NetworkLink>
        
    <NetworkLink>
      <name>5/19/5.png</name>
      <Region>
        <LatLonAltBox>
          <north>40.64375001111110</north>
          <south>40.35930556666666</south>
          <east>31.76236110000001</east>
          <west>31.47791665555557</west>
        </LatLonAltBox>
        <Lod>
          <minLodPixels>128</minLodPixels>
          <maxLodPixels>-1</maxLodPixels>
        </Lod>
      </Region>
      <Link>
        <href>../../5/19/5.kml</href>
        <viewRefreshMode>onRegion</viewRefreshMode>
        <viewFormat/>
      </Link>
    </NetworkLink>
        
    <NetworkLink>
      <name>5/18/4.png</name>
      <Region>
        <LatLonAltBox>
          <north>40.92819445555555</north>
          <south>40.64375001111110</south>
          <east>31.47791665555557</east>
          <west>31.19347221111112</west>
        </LatLonAltBox>
        <Lod>
          <minLodPixels>128</minLodPixels>
          <maxLodPixels>-1</maxLodPixels>
        </Lod>
      </Region>
      <Link>
        <href>../../5/18/4.kml</href>
        <viewRefreshMode>onRegion</viewRefreshMode>
        <viewFormat/>
      </Link>
    </NetworkLink>
        
    <NetworkLink>
      <name>5/19/4.png</name>
      <Region>
        <LatLonAltBox>
          <north>40.92819445555555</north>
          <south>40.64375001111110</south>
          <east>31.76236110000001</east>
          <west>31.47791665555557</west>
        </LatLonAltBox>
        <Lod>
          <minLodPixels>128</minLodPixels>
          <maxLodPixels>-1</maxLodPixels>
        </Lod>
      </Region>
      <Link>
        <href>../../5/19/4.kml</href>
        <viewRefreshMode>onRegion</viewRefreshMode>
        <viewFormat/>
      </Link>
    </NetworkLink>
              </Document>
</kml>
    