<?xml version="1.0" encoding="utf-8"?>
<kml xmlns="http://www.opengis.net/kml/2.2">
  <Document>
    <name>7/35/3.kml</name>
    <description></description>
    <Style>
      <ListStyle id="hideChildren">
        <listItemType>checkHideChildren</listItemType>
      </ListStyle>
    </Style>
    <Region>
      <LatLonAltBox>
        <north>41.85263890000000</north>
        <south>41.78152778888889</south>
        <east>28.63347221111112</east>
        <west>28.56236110000001</west>
      </LatLonAltBox>
      <Lod>
        <minLodPixels>128</minLodPixels>
        <maxLodPixels>-1</maxLodPixels>
      </Lod>
    </Region>
    <GroundOverlay>
      <drawOrder>14</drawOrder>
      <Icon>
        <href>3.png</href>
      </Icon>
      <LatLonBox>
        <north>41.85263890000000</north>
        <south>41.78152778888889</south>
        <east>28.63347221111112</east>
        <west>28.56236110000001</west>
      </LatLonBox>
    </GroundOverlay>
      </Document>
</kml>
    