<?xml version="1.0" encoding="utf-8"?>
<kml xmlns="http://www.opengis.net/kml/2.2">
  <Document>
    <name>5/6/4.kml</name>
    <description></description>
    <Style>
      <ListStyle id="hideChildren">
        <listItemType>checkHideChildren</listItemType>
      </ListStyle>
    </Style>
    <Region>
      <LatLonAltBox>
        <north>40.92819445555555</north>
        <south>40.64375001111110</south>
        <east>28.06458332222223</east>
        <west>27.78013887777779</west>
      </LatLonAltBox>
      <Lod>
        <minLodPixels>128</minLodPixels>
        <maxLodPixels>2048</maxLodPixels>
      </Lod>
    </Region>
    <GroundOverlay>
      <drawOrder>10</drawOrder>
      <Icon>
        <href>4.png</href>
      </Icon>
      <LatLonBox>
        <north>40.92819445555555</north>
        <south>40.64375001111110</south>
        <east>28.06458332222223</east>
        <west>27.78013887777779</west>
      </LatLonBox>
    </GroundOverlay>

    <NetworkLink>
      <name>6/12/9.png</name>
      <Region>
        <LatLonAltBox>
          <north>40.78597223333333</north>
          <south>40.64375001111110</south>
          <east>27.92236110000001</east>
          <west>27.78013887777779</west>
        </LatLonAltBox>
        <Lod>
          <minLodPixels>128</minLodPixels>
          <maxLodPixels>-1</maxLodPixels>
        </Lod>
      </Region>
      <Link>
        <href>../../6/12/9.kml</href>
        <viewRefreshMode>onRegion</viewRefreshMode>
        <viewFormat/>
      </Link>
    </NetworkLink>
        
    <NetworkLink>
      <name>6/13/9.png</name>
      <Region>
        <LatLonAltBox>
          <north>40.78597223333333</north>
          <south>40.64375001111110</south>
          <east>28.06458332222224</east>
          <west>27.92236110000001</west>
        </LatLonAltBox>
        <Lod>
          <minLodPixels>128</minLodPixels>
          <maxLodPixels>-1</maxLodPixels>
        </Lod>
      </Region>
      <Link>
        <href>../../6/13/9.kml</href>
        <viewRefreshMode>onRegion</viewRefreshMode>
        <viewFormat/>
      </Link>
    </NetworkLink>
        
    <NetworkLink>
      <name>6/12/8.png</name>
      <Region>
        <LatLonAltBox>
          <north>40.92819445555555</north>
          <south>40.78597223333333</south>
          <east>27.92236110000001</east>
          <west>27.78013887777779</west>
        </LatLonAltBox>
        <Lod>
          <minLodPixels>128</minLodPixels>
          <maxLodPixels>-1</maxLodPixels>
        </Lod>
      </Region>
      <Link>
        <href>../../6/12/8.kml</href>
        <viewRefreshMode>onRegion</viewRefreshMode>
        <viewFormat/>
      </Link>
    </NetworkLink>
        
    <NetworkLink>
      <name>6/13/8.png</name>
      <Region>
        <LatLonAltBox>
          <north>40.92819445555555</north>
          <south>40.78597223333333</south>
          <east>28.06458332222224</east>
          <west>27.92236110000001</west>
        </LatLonAltBox>
        <Lod>
          <minLodPixels>128</minLodPixels>
          <maxLodPixels>-1</maxLodPixels>
        </Lod>
      </Region>
      <Link>
        <href>../../6/13/8.kml</href>
        <viewRefreshMode>onRegion</viewRefreshMode>
        <viewFormat/>
      </Link>
    </NetworkLink>
              </Document>
</kml>
    