<?xml version="1.0" encoding="utf-8"?>
<kml xmlns="http://www.opengis.net/kml/2.2">
  <Document>
    <name>7/97/33.kml</name>
    <description></description>
    <Style>
      <ListStyle id="hideChildren">
        <listItemType>checkHideChildren</listItemType>
      </ListStyle>
    </Style>
    <Region>
      <LatLonAltBox>
        <north>39.71930556666666</north>
        <south>39.64819445555555</south>
        <east>33.04236110000001</east>
        <west>32.97124998888890</west>
      </LatLonAltBox>
      <Lod>
        <minLodPixels>128</minLodPixels>
        <maxLodPixels>-1</maxLodPixels>
      </Lod>
    </Region>
    <GroundOverlay>
      <drawOrder>14</drawOrder>
      <Icon>
        <href>33.png</href>
      </Icon>
      <LatLonBox>
        <north>39.71930556666666</north>
        <south>39.64819445555555</south>
        <east>33.04236110000001</east>
        <west>32.97124998888890</west>
      </LatLonBox>
    </GroundOverlay>
      </Document>
</kml>
    