<?xml version="1.0" encoding="utf-8"?>
<kml xmlns="http://www.opengis.net/kml/2.2">
  <Document>
    <name>4/6/5.kml</name>
    <description></description>
    <Style>
      <ListStyle id="hideChildren">
        <listItemType>checkHideChildren</listItemType>
      </ListStyle>
    </Style>
    <Region>
      <LatLonAltBox>
        <north>39.22152778888888</north>
        <south>38.65263890000000</south>
        <east>30.05569443333335</east>
        <west>29.48680554444446</west>
      </LatLonAltBox>
      <Lod>
        <minLodPixels>128</minLodPixels>
        <maxLodPixels>2048</maxLodPixels>
      </Lod>
    </Region>
    <GroundOverlay>
      <drawOrder>8</drawOrder>
      <Icon>
        <href>5.png</href>
      </Icon>
      <LatLonBox>
        <north>39.22152778888888</north>
        <south>38.65263890000000</south>
        <east>30.05569443333335</east>
        <west>29.48680554444446</west>
      </LatLonBox>
    </GroundOverlay>

    <NetworkLink>
      <name>5/12/11.png</name>
      <Region>
        <LatLonAltBox>
          <north>38.93708334444444</north>
          <south>38.65263889999999</south>
          <east>29.77124998888890</east>
          <west>29.48680554444446</west>
        </LatLonAltBox>
        <Lod>
          <minLodPixels>128</minLodPixels>
          <maxLodPixels>-1</maxLodPixels>
        </Lod>
      </Region>
      <Link>
        <href>../../5/12/11.kml</href>
        <viewRefreshMode>onRegion</viewRefreshMode>
        <viewFormat/>
      </Link>
    </NetworkLink>
        
    <NetworkLink>
      <name>5/13/11.png</name>
      <Region>
        <LatLonAltBox>
          <north>38.93708334444444</north>
          <south>38.65263889999999</south>
          <east>30.05569443333334</east>
          <west>29.77124998888890</west>
        </LatLonAltBox>
        <Lod>
          <minLodPixels>128</minLodPixels>
          <maxLodPixels>-1</maxLodPixels>
        </Lod>
      </Region>
      <Link>
        <href>../../5/13/11.kml</href>
        <viewRefreshMode>onRegion</viewRefreshMode>
        <viewFormat/>
      </Link>
    </NetworkLink>
        
    <NetworkLink>
      <name>5/12/10.png</name>
      <Region>
        <LatLonAltBox>
          <north>39.22152778888888</north>
          <south>38.93708334444444</south>
          <east>29.77124998888890</east>
          <west>29.48680554444446</west>
        </LatLonAltBox>
        <Lod>
          <minLodPixels>128</minLodPixels>
          <maxLodPixels>-1</maxLodPixels>
        </Lod>
      </Region>
      <Link>
        <href>../../5/12/10.kml</href>
        <viewRefreshMode>onRegion</viewRefreshMode>
        <viewFormat/>
      </Link>
    </NetworkLink>
        
    <NetworkLink>
      <name>5/13/10.png</name>
      <Region>
        <LatLonAltBox>
          <north>39.22152778888888</north>
          <south>38.93708334444444</south>
          <east>30.05569443333334</east>
          <west>29.77124998888890</west>
        </LatLonAltBox>
        <Lod>
          <minLodPixels>128</minLodPixels>
          <maxLodPixels>-1</maxLodPixels>
        </Lod>
      </Region>
      <Link>
        <href>../../5/13/10.kml</href>
        <viewRefreshMode>onRegion</viewRefreshMode>
        <viewFormat/>
      </Link>
    </NetworkLink>
              </Document>
</kml>
    