<?xml version="1.0" encoding="utf-8"?>
<kml xmlns="http://www.opengis.net/kml/2.2">
  <Document>
    <name>7/36/40.kml</name>
    <description></description>
    <Style>
      <ListStyle id="hideChildren">
        <listItemType>checkHideChildren</listItemType>
      </ListStyle>
    </Style>
    <Region>
      <LatLonAltBox>
        <north>39.22152778888888</north>
        <south>39.15041667777778</south>
        <east>28.70458332222223</east>
        <west>28.63347221111112</west>
      </LatLonAltBox>
      <Lod>
        <minLodPixels>128</minLodPixels>
        <maxLodPixels>-1</maxLodPixels>
      </Lod>
    </Region>
    <GroundOverlay>
      <drawOrder>14</drawOrder>
      <Icon>
        <href>40.png</href>
      </Icon>
      <LatLonBox>
        <north>39.22152778888888</north>
        <south>39.15041667777778</south>
        <east>28.70458332222223</east>
        <west>28.63347221111112</west>
      </LatLonBox>
    </GroundOverlay>
      </Document>
</kml>
    