<?xml version="1.0" encoding="utf-8"?>
<kml xmlns="http://www.opengis.net/kml/2.2">
  <Document>
    <name>6/37/21.kml</name>
    <description></description>
    <Style>
      <ListStyle id="hideChildren">
        <listItemType>checkHideChildren</listItemType>
      </ListStyle>
    </Style>
    <Region>
      <LatLonAltBox>
        <north>39.07930556666666</north>
        <south>38.93708334444444</south>
        <east>31.47791665555557</east>
        <west>31.33569443333334</west>
      </LatLonAltBox>
      <Lod>
        <minLodPixels>128</minLodPixels>
        <maxLodPixels>2048</maxLodPixels>
      </Lod>
    </Region>
    <GroundOverlay>
      <drawOrder>12</drawOrder>
      <Icon>
        <href>21.png</href>
      </Icon>
      <LatLonBox>
        <north>39.07930556666666</north>
        <south>38.93708334444444</south>
        <east>31.47791665555557</east>
        <west>31.33569443333334</west>
      </LatLonBox>
    </GroundOverlay>

    <NetworkLink>
      <name>7/74/43.png</name>
      <Region>
        <LatLonAltBox>
          <north>39.00819445555555</north>
          <south>38.93708334444444</south>
          <east>31.40680554444446</east>
          <west>31.33569443333334</west>
        </LatLonAltBox>
        <Lod>
          <minLodPixels>128</minLodPixels>
          <maxLodPixels>-1</maxLodPixels>
        </Lod>
      </Region>
      <Link>
        <href>../../7/74/43.kml</href>
        <viewRefreshMode>onRegion</viewRefreshMode>
        <viewFormat/>
      </Link>
    </NetworkLink>
        
    <NetworkLink>
      <name>7/75/43.png</name>
      <Region>
        <LatLonAltBox>
          <north>39.00819445555555</north>
          <south>38.93708334444444</south>
          <east>31.47791665555557</east>
          <west>31.40680554444446</west>
        </LatLonAltBox>
        <Lod>
          <minLodPixels>128</minLodPixels>
          <maxLodPixels>-1</maxLodPixels>
        </Lod>
      </Region>
      <Link>
        <href>../../7/75/43.kml</href>
        <viewRefreshMode>onRegion</viewRefreshMode>
        <viewFormat/>
      </Link>
    </NetworkLink>
        
    <NetworkLink>
      <name>7/74/42.png</name>
      <Region>
        <LatLonAltBox>
          <north>39.07930556666666</north>
          <south>39.00819445555555</south>
          <east>31.40680554444446</east>
          <west>31.33569443333334</west>
        </LatLonAltBox>
        <Lod>
          <minLodPixels>128</minLodPixels>
          <maxLodPixels>-1</maxLodPixels>
        </Lod>
      </Region>
      <Link>
        <href>../../7/74/42.kml</href>
        <viewRefreshMode>onRegion</viewRefreshMode>
        <viewFormat/>
      </Link>
    </NetworkLink>
        
    <NetworkLink>
      <name>7/75/42.png</name>
      <Region>
        <LatLonAltBox>
          <north>39.07930556666666</north>
          <south>39.00819445555555</south>
          <east>31.47791665555557</east>
          <west>31.40680554444446</west>
        </LatLonAltBox>
        <Lod>
          <minLodPixels>128</minLodPixels>
          <maxLodPixels>-1</maxLodPixels>
        </Lod>
      </Region>
      <Link>
        <href>../../7/75/42.kml</href>
        <viewRefreshMode>onRegion</viewRefreshMode>
        <viewFormat/>
      </Link>
    </NetworkLink>
              </Document>
</kml>
    