<?xml version="1.0" encoding="utf-8"?>
<kml xmlns="http://www.opengis.net/kml/2.2">
  <Document>
    <name>6/36/7.kml</name>
    <description></description>
    <Style>
      <ListStyle id="hideChildren">
        <listItemType>checkHideChildren</listItemType>
      </ListStyle>
    </Style>
    <Region>
      <LatLonAltBox>
        <north>41.07041667777777</north>
        <south>40.92819445555555</south>
        <east>31.33569443333335</east>
        <west>31.19347221111112</west>
      </LatLonAltBox>
      <Lod>
        <minLodPixels>128</minLodPixels>
        <maxLodPixels>2048</maxLodPixels>
      </Lod>
    </Region>
    <GroundOverlay>
      <drawOrder>12</drawOrder>
      <Icon>
        <href>7.png</href>
      </Icon>
      <LatLonBox>
        <north>41.07041667777777</north>
        <south>40.92819445555555</south>
        <east>31.33569443333335</east>
        <west>31.19347221111112</west>
      </LatLonBox>
    </GroundOverlay>

    <NetworkLink>
      <name>7/72/15.png</name>
      <Region>
        <LatLonAltBox>
          <north>40.99930556666666</north>
          <south>40.92819445555555</south>
          <east>31.26458332222224</east>
          <west>31.19347221111112</west>
        </LatLonAltBox>
        <Lod>
          <minLodPixels>128</minLodPixels>
          <maxLodPixels>-1</maxLodPixels>
        </Lod>
      </Region>
      <Link>
        <href>../../7/72/15.kml</href>
        <viewRefreshMode>onRegion</viewRefreshMode>
        <viewFormat/>
      </Link>
    </NetworkLink>
        
    <NetworkLink>
      <name>7/73/15.png</name>
      <Region>
        <LatLonAltBox>
          <north>40.99930556666666</north>
          <south>40.92819445555555</south>
          <east>31.33569443333335</east>
          <west>31.26458332222224</west>
        </LatLonAltBox>
        <Lod>
          <minLodPixels>128</minLodPixels>
          <maxLodPixels>-1</maxLodPixels>
        </Lod>
      </Region>
      <Link>
        <href>../../7/73/15.kml</href>
        <viewRefreshMode>onRegion</viewRefreshMode>
        <viewFormat/>
      </Link>
    </NetworkLink>
        
    <NetworkLink>
      <name>7/72/14.png</name>
      <Region>
        <LatLonAltBox>
          <north>41.07041667777777</north>
          <south>40.99930556666666</south>
          <east>31.26458332222224</east>
          <west>31.19347221111112</west>
        </LatLonAltBox>
        <Lod>
          <minLodPixels>128</minLodPixels>
          <maxLodPixels>-1</maxLodPixels>
        </Lod>
      </Region>
      <Link>
        <href>../../7/72/14.kml</href>
        <viewRefreshMode>onRegion</viewRefreshMode>
        <viewFormat/>
      </Link>
    </NetworkLink>
        
    <NetworkLink>
      <name>7/73/14.png</name>
      <Region>
        <LatLonAltBox>
          <north>41.07041667777777</north>
          <south>40.99930556666666</south>
          <east>31.33569443333335</east>
          <west>31.26458332222224</west>
        </LatLonAltBox>
        <Lod>
          <minLodPixels>128</minLodPixels>
          <maxLodPixels>-1</maxLodPixels>
        </Lod>
      </Region>
      <Link>
        <href>../../7/73/14.kml</href>
        <viewRefreshMode>onRegion</viewRefreshMode>
        <viewFormat/>
      </Link>
    </NetworkLink>
              </Document>
</kml>
    