<?xml version="1.0" encoding="utf-8"?>
<kml xmlns="http://www.opengis.net/kml/2.2">
  <Document>
    <name>6/3/13.kml</name>
    <description></description>
    <Style>
      <ListStyle id="hideChildren">
        <listItemType>checkHideChildren</listItemType>
      </ListStyle>
    </Style>
    <Region>
      <LatLonAltBox>
        <north>40.21708334444444</north>
        <south>40.07486112222222</south>
        <east>26.64236110000001</east>
        <west>26.50013887777779</west>
      </LatLonAltBox>
      <Lod>
        <minLodPixels>128</minLodPixels>
        <maxLodPixels>2048</maxLodPixels>
      </Lod>
    </Region>
    <GroundOverlay>
      <drawOrder>12</drawOrder>
      <Icon>
        <href>13.png</href>
      </Icon>
      <LatLonBox>
        <north>40.21708334444444</north>
        <south>40.07486112222222</south>
        <east>26.64236110000001</east>
        <west>26.50013887777779</west>
      </LatLonBox>
    </GroundOverlay>

    <NetworkLink>
      <name>7/6/27.png</name>
      <Region>
        <LatLonAltBox>
          <north>40.14597223333332</north>
          <south>40.07486112222222</south>
          <east>26.57124998888890</east>
          <west>26.50013887777779</west>
        </LatLonAltBox>
        <Lod>
          <minLodPixels>128</minLodPixels>
          <maxLodPixels>-1</maxLodPixels>
        </Lod>
      </Region>
      <Link>
        <href>../../7/6/27.kml</href>
        <viewRefreshMode>onRegion</viewRefreshMode>
        <viewFormat/>
      </Link>
    </NetworkLink>
        
    <NetworkLink>
      <name>7/7/27.png</name>
      <Region>
        <LatLonAltBox>
          <north>40.14597223333332</north>
          <south>40.07486112222222</south>
          <east>26.64236110000001</east>
          <west>26.57124998888890</west>
        </LatLonAltBox>
        <Lod>
          <minLodPixels>128</minLodPixels>
          <maxLodPixels>-1</maxLodPixels>
        </Lod>
      </Region>
      <Link>
        <href>../../7/7/27.kml</href>
        <viewRefreshMode>onRegion</viewRefreshMode>
        <viewFormat/>
      </Link>
    </NetworkLink>
        
    <NetworkLink>
      <name>7/6/26.png</name>
      <Region>
        <LatLonAltBox>
          <north>40.21708334444444</north>
          <south>40.14597223333333</south>
          <east>26.57124998888890</east>
          <west>26.50013887777779</west>
        </LatLonAltBox>
        <Lod>
          <minLodPixels>128</minLodPixels>
          <maxLodPixels>-1</maxLodPixels>
        </Lod>
      </Region>
      <Link>
        <href>../../7/6/26.kml</href>
        <viewRefreshMode>onRegion</viewRefreshMode>
        <viewFormat/>
      </Link>
    </NetworkLink>
        
    <NetworkLink>
      <name>7/7/26.png</name>
      <Region>
        <LatLonAltBox>
          <north>40.21708334444444</north>
          <south>40.14597223333333</south>
          <east>26.64236110000001</east>
          <west>26.57124998888890</west>
        </LatLonAltBox>
        <Lod>
          <minLodPixels>128</minLodPixels>
          <maxLodPixels>-1</maxLodPixels>
        </Lod>
      </Region>
      <Link>
        <href>../../7/7/26.kml</href>
        <viewRefreshMode>onRegion</viewRefreshMode>
        <viewFormat/>
      </Link>
    </NetworkLink>
              </Document>
</kml>
    