<?xml version="1.0" encoding="utf-8"?>
<kml xmlns="http://www.opengis.net/kml/2.2">
  <Document>
    <name>5/15/7.kml</name>
    <description></description>
    <Style>
      <ListStyle id="hideChildren">
        <listItemType>checkHideChildren</listItemType>
      </ListStyle>
    </Style>
    <Region>
      <LatLonAltBox>
        <north>40.07486112222222</north>
        <south>39.79041667777777</south>
        <east>30.62458332222223</east>
        <west>30.34013887777779</west>
      </LatLonAltBox>
      <Lod>
        <minLodPixels>128</minLodPixels>
        <maxLodPixels>2048</maxLodPixels>
      </Lod>
    </Region>
    <GroundOverlay>
      <drawOrder>10</drawOrder>
      <Icon>
        <href>7.png</href>
      </Icon>
      <LatLonBox>
        <north>40.07486112222222</north>
        <south>39.79041667777777</south>
        <east>30.62458332222223</east>
        <west>30.34013887777779</west>
      </LatLonBox>
    </GroundOverlay>

    <NetworkLink>
      <name>6/30/15.png</name>
      <Region>
        <LatLonAltBox>
          <north>39.93263889999999</north>
          <south>39.79041667777777</south>
          <east>30.48236110000001</east>
          <west>30.34013887777779</west>
        </LatLonAltBox>
        <Lod>
          <minLodPixels>128</minLodPixels>
          <maxLodPixels>-1</maxLodPixels>
        </Lod>
      </Region>
      <Link>
        <href>../../6/30/15.kml</href>
        <viewRefreshMode>onRegion</viewRefreshMode>
        <viewFormat/>
      </Link>
    </NetworkLink>
        
    <NetworkLink>
      <name>6/31/15.png</name>
      <Region>
        <LatLonAltBox>
          <north>39.93263889999999</north>
          <south>39.79041667777777</south>
          <east>30.62458332222224</east>
          <west>30.48236110000001</west>
        </LatLonAltBox>
        <Lod>
          <minLodPixels>128</minLodPixels>
          <maxLodPixels>-1</maxLodPixels>
        </Lod>
      </Region>
      <Link>
        <href>../../6/31/15.kml</href>
        <viewRefreshMode>onRegion</viewRefreshMode>
        <viewFormat/>
      </Link>
    </NetworkLink>
        
    <NetworkLink>
      <name>6/30/14.png</name>
      <Region>
        <LatLonAltBox>
          <north>40.07486112222222</north>
          <south>39.93263889999999</south>
          <east>30.48236110000001</east>
          <west>30.34013887777779</west>
        </LatLonAltBox>
        <Lod>
          <minLodPixels>128</minLodPixels>
          <maxLodPixels>-1</maxLodPixels>
        </Lod>
      </Region>
      <Link>
        <href>../../6/30/14.kml</href>
        <viewRefreshMode>onRegion</viewRefreshMode>
        <viewFormat/>
      </Link>
    </NetworkLink>
        
    <NetworkLink>
      <name>6/31/14.png</name>
      <Region>
        <LatLonAltBox>
          <north>40.07486112222222</north>
          <south>39.93263889999999</south>
          <east>30.62458332222224</east>
          <west>30.48236110000001</west>
        </LatLonAltBox>
        <Lod>
          <minLodPixels>128</minLodPixels>
          <maxLodPixels>-1</maxLodPixels>
        </Lod>
      </Region>
      <Link>
        <href>../../6/31/14.kml</href>
        <viewRefreshMode>onRegion</viewRefreshMode>
        <viewFormat/>
      </Link>
    </NetworkLink>
              </Document>
</kml>
    