<?xml version="1.0" encoding="utf-8"?>
<kml xmlns="http://www.opengis.net/kml/2.2">
  <Document>
    <name>5/10/1.kml</name>
    <description></description>
    <Style>
      <ListStyle id="hideChildren">
        <listItemType>checkHideChildren</listItemType>
      </ListStyle>
    </Style>
    <Region>
      <LatLonAltBox>
        <north>41.78152778888888</north>
        <south>41.49708334444443</south>
        <east>29.20236110000001</east>
        <west>28.91791665555557</west>
      </LatLonAltBox>
      <Lod>
        <minLodPixels>128</minLodPixels>
        <maxLodPixels>2048</maxLodPixels>
      </Lod>
    </Region>
    <GroundOverlay>
      <drawOrder>10</drawOrder>
      <Icon>
        <href>1.png</href>
      </Icon>
      <LatLonBox>
        <north>41.78152778888888</north>
        <south>41.49708334444443</south>
        <east>29.20236110000001</east>
        <west>28.91791665555557</west>
      </LatLonBox>
    </GroundOverlay>

    <NetworkLink>
      <name>6/20/3.png</name>
      <Region>
        <LatLonAltBox>
          <north>41.63930556666666</north>
          <south>41.49708334444443</south>
          <east>29.06013887777779</east>
          <west>28.91791665555557</west>
        </LatLonAltBox>
        <Lod>
          <minLodPixels>128</minLodPixels>
          <maxLodPixels>-1</maxLodPixels>
        </Lod>
      </Region>
      <Link>
        <href>../../6/20/3.kml</href>
        <viewRefreshMode>onRegion</viewRefreshMode>
        <viewFormat/>
      </Link>
    </NetworkLink>
        
    <NetworkLink>
      <name>6/21/3.png</name>
      <Region>
        <LatLonAltBox>
          <north>41.63930556666666</north>
          <south>41.49708334444443</south>
          <east>29.20236110000002</east>
          <west>29.06013887777779</west>
        </LatLonAltBox>
        <Lod>
          <minLodPixels>128</minLodPixels>
          <maxLodPixels>-1</maxLodPixels>
        </Lod>
      </Region>
      <Link>
        <href>../../6/21/3.kml</href>
        <viewRefreshMode>onRegion</viewRefreshMode>
        <viewFormat/>
      </Link>
    </NetworkLink>
        
    <NetworkLink>
      <name>6/20/2.png</name>
      <Region>
        <LatLonAltBox>
          <north>41.78152778888888</north>
          <south>41.63930556666666</south>
          <east>29.06013887777779</east>
          <west>28.91791665555557</west>
        </LatLonAltBox>
        <Lod>
          <minLodPixels>128</minLodPixels>
          <maxLodPixels>-1</maxLodPixels>
        </Lod>
      </Region>
      <Link>
        <href>../../6/20/2.kml</href>
        <viewRefreshMode>onRegion</viewRefreshMode>
        <viewFormat/>
      </Link>
    </NetworkLink>
        
    <NetworkLink>
      <name>6/21/2.png</name>
      <Region>
        <LatLonAltBox>
          <north>41.78152778888888</north>
          <south>41.63930556666666</south>
          <east>29.20236110000002</east>
          <west>29.06013887777779</west>
        </LatLonAltBox>
        <Lod>
          <minLodPixels>128</minLodPixels>
          <maxLodPixels>-1</maxLodPixels>
        </Lod>
      </Region>
      <Link>
        <href>../../6/21/2.kml</href>
        <viewRefreshMode>onRegion</viewRefreshMode>
        <viewFormat/>
      </Link>
    </NetworkLink>
              </Document>
</kml>
    