<?xml version="1.0" encoding="utf-8"?>
<kml xmlns="http://www.opengis.net/kml/2.2">
  <Document>
    <name>3/1/1.kml</name>
    <description></description>
    <Style>
      <ListStyle id="hideChildren">
        <listItemType>checkHideChildren</listItemType>
      </ListStyle>
    </Style>
    <Region>
      <LatLonAltBox>
        <north>40.92819445555555</north>
        <south>39.79041667777777</south>
        <east>28.34902776666668</east>
        <west>27.21124998888890</west>
      </LatLonAltBox>
      <Lod>
        <minLodPixels>128</minLodPixels>
        <maxLodPixels>2048</maxLodPixels>
      </Lod>
    </Region>
    <GroundOverlay>
      <drawOrder>6</drawOrder>
      <Icon>
        <href>1.png</href>
      </Icon>
      <LatLonBox>
        <north>40.92819445555555</north>
        <south>39.79041667777777</south>
        <east>28.34902776666668</east>
        <west>27.21124998888890</west>
      </LatLonBox>
    </GroundOverlay>

    <NetworkLink>
      <name>4/2/3.png</name>
      <Region>
        <LatLonAltBox>
          <north>40.35930556666666</north>
          <south>39.79041667777778</south>
          <east>27.78013887777779</east>
          <west>27.21124998888890</west>
        </LatLonAltBox>
        <Lod>
          <minLodPixels>128</minLodPixels>
          <maxLodPixels>-1</maxLodPixels>
        </Lod>
      </Region>
      <Link>
        <href>../../4/2/3.kml</href>
        <viewRefreshMode>onRegion</viewRefreshMode>
        <viewFormat/>
      </Link>
    </NetworkLink>
        
    <NetworkLink>
      <name>4/3/3.png</name>
      <Region>
        <LatLonAltBox>
          <north>40.35930556666666</north>
          <south>39.79041667777778</south>
          <east>28.34902776666668</east>
          <west>27.78013887777779</west>
        </LatLonAltBox>
        <Lod>
          <minLodPixels>128</minLodPixels>
          <maxLodPixels>-1</maxLodPixels>
        </Lod>
      </Region>
      <Link>
        <href>../../4/3/3.kml</href>
        <viewRefreshMode>onRegion</viewRefreshMode>
        <viewFormat/>
      </Link>
    </NetworkLink>
        
    <NetworkLink>
      <name>4/2/2.png</name>
      <Region>
        <LatLonAltBox>
          <north>40.92819445555555</north>
          <south>40.35930556666666</south>
          <east>27.78013887777779</east>
          <west>27.21124998888890</west>
        </LatLonAltBox>
        <Lod>
          <minLodPixels>128</minLodPixels>
          <maxLodPixels>-1</maxLodPixels>
        </Lod>
      </Region>
      <Link>
        <href>../../4/2/2.kml</href>
        <viewRefreshMode>onRegion</viewRefreshMode>
        <viewFormat/>
      </Link>
    </NetworkLink>
        
    <NetworkLink>
      <name>4/3/2.png</name>
      <Region>
        <LatLonAltBox>
          <north>40.92819445555555</north>
          <south>40.35930556666666</south>
          <east>28.34902776666668</east>
          <west>27.78013887777779</west>
        </LatLonAltBox>
        <Lod>
          <minLodPixels>128</minLodPixels>
          <maxLodPixels>-1</maxLodPixels>
        </Lod>
      </Region>
      <Link>
        <href>../../4/3/2.kml</href>
        <viewRefreshMode>onRegion</viewRefreshMode>
        <viewFormat/>
      </Link>
    </NetworkLink>
              </Document>
</kml>
    