<?xml version="1.0" encoding="utf-8"?>
<kml xmlns="http://www.opengis.net/kml/2.2">
  <Document>
    <name>6/34/1.kml</name>
    <description></description>
    <Style>
      <ListStyle id="hideChildren">
        <listItemType>checkHideChildren</listItemType>
      </ListStyle>
    </Style>
    <Region>
      <LatLonAltBox>
        <north>41.92375001111110</north>
        <south>41.78152778888888</south>
        <east>31.05124998888890</east>
        <west>30.90902776666668</west>
      </LatLonAltBox>
      <Lod>
        <minLodPixels>128</minLodPixels>
        <maxLodPixels>2048</maxLodPixels>
      </Lod>
    </Region>
    <GroundOverlay>
      <drawOrder>12</drawOrder>
      <Icon>
        <href>1.png</href>
      </Icon>
      <LatLonBox>
        <north>41.92375001111110</north>
        <south>41.78152778888888</south>
        <east>31.05124998888890</east>
        <west>30.90902776666668</west>
      </LatLonBox>
    </GroundOverlay>

    <NetworkLink>
      <name>7/68/3.png</name>
      <Region>
        <LatLonAltBox>
          <north>41.85263890000000</north>
          <south>41.78152778888889</south>
          <east>30.98013887777779</east>
          <west>30.90902776666668</west>
        </LatLonAltBox>
        <Lod>
          <minLodPixels>128</minLodPixels>
          <maxLodPixels>-1</maxLodPixels>
        </Lod>
      </Region>
      <Link>
        <href>../../7/68/3.kml</href>
        <viewRefreshMode>onRegion</viewRefreshMode>
        <viewFormat/>
      </Link>
    </NetworkLink>
        
    <NetworkLink>
      <name>7/69/3.png</name>
      <Region>
        <LatLonAltBox>
          <north>41.85263890000000</north>
          <south>41.78152778888889</south>
          <east>31.05124998888890</east>
          <west>30.98013887777779</west>
        </LatLonAltBox>
        <Lod>
          <minLodPixels>128</minLodPixels>
          <maxLodPixels>-1</maxLodPixels>
        </Lod>
      </Region>
      <Link>
        <href>../../7/69/3.kml</href>
        <viewRefreshMode>onRegion</viewRefreshMode>
        <viewFormat/>
      </Link>
    </NetworkLink>
        
    <NetworkLink>
      <name>7/68/2.png</name>
      <Region>
        <LatLonAltBox>
          <north>41.92375001111110</north>
          <south>41.85263890000000</south>
          <east>30.98013887777779</east>
          <west>30.90902776666668</west>
        </LatLonAltBox>
        <Lod>
          <minLodPixels>128</minLodPixels>
          <maxLodPixels>-1</maxLodPixels>
        </Lod>
      </Region>
      <Link>
        <href>../../7/68/2.kml</href>
        <viewRefreshMode>onRegion</viewRefreshMode>
        <viewFormat/>
      </Link>
    </NetworkLink>
        
    <NetworkLink>
      <name>7/69/2.png</name>
      <Region>
        <LatLonAltBox>
          <north>41.92375001111110</north>
          <south>41.85263890000000</south>
          <east>31.05124998888890</east>
          <west>30.98013887777779</west>
        </LatLonAltBox>
        <Lod>
          <minLodPixels>128</minLodPixels>
          <maxLodPixels>-1</maxLodPixels>
        </Lod>
      </Region>
      <Link>
        <href>../../7/69/2.kml</href>
        <viewRefreshMode>onRegion</viewRefreshMode>
        <viewFormat/>
      </Link>
    </NetworkLink>
              </Document>
</kml>
    