<?xml version="1.0" encoding="utf-8"?>
<kml xmlns="http://www.opengis.net/kml/2.2">
  <Document>
    <name>6/45/6.kml</name>
    <description></description>
    <Style>
      <ListStyle id="hideChildren">
        <listItemType>checkHideChildren</listItemType>
      </ListStyle>
    </Style>
    <Region>
      <LatLonAltBox>
        <north>41.21263889999999</north>
        <south>41.07041667777777</south>
        <east>32.61569443333335</east>
        <west>32.47347221111112</west>
      </LatLonAltBox>
      <Lod>
        <minLodPixels>128</minLodPixels>
        <maxLodPixels>2048</maxLodPixels>
      </Lod>
    </Region>
    <GroundOverlay>
      <drawOrder>12</drawOrder>
      <Icon>
        <href>6.png</href>
      </Icon>
      <LatLonBox>
        <north>41.21263889999999</north>
        <south>41.07041667777777</south>
        <east>32.61569443333335</east>
        <west>32.47347221111112</west>
      </LatLonBox>
    </GroundOverlay>

    <NetworkLink>
      <name>7/90/13.png</name>
      <Region>
        <LatLonAltBox>
          <north>41.14152778888888</north>
          <south>41.07041667777777</south>
          <east>32.54458332222223</east>
          <west>32.47347221111112</west>
        </LatLonAltBox>
        <Lod>
          <minLodPixels>128</minLodPixels>
          <maxLodPixels>-1</maxLodPixels>
        </Lod>
      </Region>
      <Link>
        <href>../../7/90/13.kml</href>
        <viewRefreshMode>onRegion</viewRefreshMode>
        <viewFormat/>
      </Link>
    </NetworkLink>
        
    <NetworkLink>
      <name>7/91/13.png</name>
      <Region>
        <LatLonAltBox>
          <north>41.14152778888888</north>
          <south>41.07041667777777</south>
          <east>32.61569443333335</east>
          <west>32.54458332222224</west>
        </LatLonAltBox>
        <Lod>
          <minLodPixels>128</minLodPixels>
          <maxLodPixels>-1</maxLodPixels>
        </Lod>
      </Region>
      <Link>
        <href>../../7/91/13.kml</href>
        <viewRefreshMode>onRegion</viewRefreshMode>
        <viewFormat/>
      </Link>
    </NetworkLink>
        
    <NetworkLink>
      <name>7/90/12.png</name>
      <Region>
        <LatLonAltBox>
          <north>41.21263889999999</north>
          <south>41.14152778888889</south>
          <east>32.54458332222223</east>
          <west>32.47347221111112</west>
        </LatLonAltBox>
        <Lod>
          <minLodPixels>128</minLodPixels>
          <maxLodPixels>-1</maxLodPixels>
        </Lod>
      </Region>
      <Link>
        <href>../../7/90/12.kml</href>
        <viewRefreshMode>onRegion</viewRefreshMode>
        <viewFormat/>
      </Link>
    </NetworkLink>
        
    <NetworkLink>
      <name>7/91/12.png</name>
      <Region>
        <LatLonAltBox>
          <north>41.21263889999999</north>
          <south>41.14152778888889</south>
          <east>32.61569443333335</east>
          <west>32.54458332222224</west>
        </LatLonAltBox>
        <Lod>
          <minLodPixels>128</minLodPixels>
          <maxLodPixels>-1</maxLodPixels>
        </Lod>
      </Region>
      <Link>
        <href>../../7/91/12.kml</href>
        <viewRefreshMode>onRegion</viewRefreshMode>
        <viewFormat/>
      </Link>
    </NetworkLink>
              </Document>
</kml>
    