<?xml version="1.0" encoding="utf-8"?>
<kml xmlns="http://www.opengis.net/kml/2.2">
  <Document>
    <name>7/18/23.kml</name>
    <description></description>
    <Style>
      <ListStyle id="hideChildren">
        <listItemType>checkHideChildren</listItemType>
      </ListStyle>
    </Style>
    <Region>
      <LatLonAltBox>
        <north>40.43041667777777</north>
        <south>40.35930556666666</south>
        <east>27.42458332222224</east>
        <west>27.35347221111113</west>
      </LatLonAltBox>
      <Lod>
        <minLodPixels>128</minLodPixels>
        <maxLodPixels>-1</maxLodPixels>
      </Lod>
    </Region>
    <GroundOverlay>
      <drawOrder>14</drawOrder>
      <Icon>
        <href>23.png</href>
      </Icon>
      <LatLonBox>
        <north>40.43041667777777</north>
        <south>40.35930556666666</south>
        <east>27.42458332222224</east>
        <west>27.35347221111113</west>
      </LatLonBox>
    </GroundOverlay>
      </Document>
</kml>
    