<?xml version="1.0" encoding="utf-8"?>
<kml xmlns="http://www.opengis.net/kml/2.2">
  <Document>
    <name>0/0/0.kml</name>
    <description></description>
    <Style>
      <ListStyle id="hideChildren">
        <listItemType>checkHideChildren</listItemType>
      </ListStyle>
    </Style>
    <Region>
      <LatLonAltBox>
        <north>42.06597223333333</north>
        <south>32.96375001111110</south>
        <east>35.17569443333335</east>
        <west>26.07347221111112</west>
      </LatLonAltBox>
      <Lod>
        <minLodPixels>128</minLodPixels>
        <maxLodPixels>2048</maxLodPixels>
      </Lod>
    </Region>
    <GroundOverlay>
      <drawOrder>1</drawOrder>
      <Icon>
        <href>0.png</href>
      </Icon>
      <LatLonBox>
        <north>42.06597223333333</north>
        <south>32.96375001111110</south>
        <east>35.17569443333335</east>
        <west>26.07347221111112</west>
      </LatLonBox>
    </GroundOverlay>

    <NetworkLink>
      <name>1/0/0.png</name>
      <Region>
        <LatLonAltBox>
          <north>42.06597223333333</north>
          <south>37.51486112222221</south>
          <east>30.62458332222224</east>
          <west>26.07347221111112</west>
        </LatLonAltBox>
        <Lod>
          <minLodPixels>128</minLodPixels>
          <maxLodPixels>-1</maxLodPixels>
        </Lod>
      </Region>
      <Link>
        <href>../../1/0/0.kml</href>
        <viewRefreshMode>onRegion</viewRefreshMode>
        <viewFormat/>
      </Link>
    </NetworkLink>
        
    <NetworkLink>
      <name>1/1/0.png</name>
      <Region>
        <LatLonAltBox>
          <north>42.06597223333333</north>
          <south>37.51486112222221</south>
          <east>35.17569443333335</east>
          <west>30.62458332222224</west>
        </LatLonAltBox>
        <Lod>
          <minLodPixels>128</minLodPixels>
          <maxLodPixels>-1</maxLodPixels>
        </Lod>
      </Region>
      <Link>
        <href>../../1/1/0.kml</href>
        <viewRefreshMode>onRegion</viewRefreshMode>
        <viewFormat/>
      </Link>
    </NetworkLink>
              </Document>
</kml>
    