<?xml version="1.0" encoding="utf-8"?>
<kml xmlns="http://www.opengis.net/kml/2.2">
  <Document>
    <name>7/41/8.kml</name>
    <description></description>
    <Style>
      <ListStyle id="hideChildren">
        <listItemType>checkHideChildren</listItemType>
      </ListStyle>
    </Style>
    <Region>
      <LatLonAltBox>
        <north>41.49708334444444</north>
        <south>41.42597223333333</south>
        <east>29.06013887777779</east>
        <west>28.98902776666668</west>
      </LatLonAltBox>
      <Lod>
        <minLodPixels>128</minLodPixels>
        <maxLodPixels>-1</maxLodPixels>
      </Lod>
    </Region>
    <GroundOverlay>
      <drawOrder>14</drawOrder>
      <Icon>
        <href>8.png</href>
      </Icon>
      <LatLonBox>
        <north>41.49708334444444</north>
        <south>41.42597223333333</south>
        <east>29.06013887777779</east>
        <west>28.98902776666668</west>
      </LatLonBox>
    </GroundOverlay>
      </Document>
</kml>
    