<?xml version="1.0" encoding="utf-8"?>
<kml xmlns="http://www.opengis.net/kml/2.2">
  <Document>
    <name>5/4/0.kml</name>
    <description></description>
    <Style>
      <ListStyle id="hideChildren">
        <listItemType>checkHideChildren</listItemType>
      </ListStyle>
    </Style>
    <Region>
      <LatLonAltBox>
        <north>42.06597223333333</north>
        <south>41.78152778888888</south>
        <east>27.49569443333334</east>
        <west>27.21124998888890</west>
      </LatLonAltBox>
      <Lod>
        <minLodPixels>128</minLodPixels>
        <maxLodPixels>2048</maxLodPixels>
      </Lod>
    </Region>
    <GroundOverlay>
      <drawOrder>10</drawOrder>
      <Icon>
        <href>0.png</href>
      </Icon>
      <LatLonBox>
        <north>42.06597223333333</north>
        <south>41.78152778888888</south>
        <east>27.49569443333334</east>
        <west>27.21124998888890</west>
      </LatLonBox>
    </GroundOverlay>

    <NetworkLink>
      <name>6/8/1.png</name>
      <Region>
        <LatLonAltBox>
          <north>41.92375001111110</north>
          <south>41.78152778888888</south>
          <east>27.35347221111113</east>
          <west>27.21124998888890</west>
        </LatLonAltBox>
        <Lod>
          <minLodPixels>128</minLodPixels>
          <maxLodPixels>-1</maxLodPixels>
        </Lod>
      </Region>
      <Link>
        <href>../../6/8/1.kml</href>
        <viewRefreshMode>onRegion</viewRefreshMode>
        <viewFormat/>
      </Link>
    </NetworkLink>
        
    <NetworkLink>
      <name>6/9/1.png</name>
      <Region>
        <LatLonAltBox>
          <north>41.92375001111110</north>
          <south>41.78152778888888</south>
          <east>27.49569443333335</east>
          <west>27.35347221111113</west>
        </LatLonAltBox>
        <Lod>
          <minLodPixels>128</minLodPixels>
          <maxLodPixels>-1</maxLodPixels>
        </Lod>
      </Region>
      <Link>
        <href>../../6/9/1.kml</href>
        <viewRefreshMode>onRegion</viewRefreshMode>
        <viewFormat/>
      </Link>
    </NetworkLink>
        
    <NetworkLink>
      <name>6/8/0.png</name>
      <Region>
        <LatLonAltBox>
          <north>42.06597223333333</north>
          <south>41.92375001111110</south>
          <east>27.35347221111113</east>
          <west>27.21124998888890</west>
        </LatLonAltBox>
        <Lod>
          <minLodPixels>128</minLodPixels>
          <maxLodPixels>-1</maxLodPixels>
        </Lod>
      </Region>
      <Link>
        <href>../../6/8/0.kml</href>
        <viewRefreshMode>onRegion</viewRefreshMode>
        <viewFormat/>
      </Link>
    </NetworkLink>
        
    <NetworkLink>
      <name>6/9/0.png</name>
      <Region>
        <LatLonAltBox>
          <north>42.06597223333333</north>
          <south>41.92375001111110</south>
          <east>27.49569443333335</east>
          <west>27.35347221111113</west>
        </LatLonAltBox>
        <Lod>
          <minLodPixels>128</minLodPixels>
          <maxLodPixels>-1</maxLodPixels>
        </Lod>
      </Region>
      <Link>
        <href>../../6/9/0.kml</href>
        <viewRefreshMode>onRegion</viewRefreshMode>
        <viewFormat/>
      </Link>
    </NetworkLink>
              </Document>
</kml>
    