<?xml version="1.0" encoding="utf-8"?>
<kml xmlns="http://www.opengis.net/kml/2.2">
  <Document>
    <name>5/4/3.kml</name>
    <description></description>
    <Style>
      <ListStyle id="hideChildren">
        <listItemType>checkHideChildren</listItemType>
      </ListStyle>
    </Style>
    <Region>
      <LatLonAltBox>
        <north>41.21263889999999</north>
        <south>40.92819445555555</south>
        <east>27.49569443333334</east>
        <west>27.21124998888890</west>
      </LatLonAltBox>
      <Lod>
        <minLodPixels>128</minLodPixels>
        <maxLodPixels>2048</maxLodPixels>
      </Lod>
    </Region>
    <GroundOverlay>
      <drawOrder>10</drawOrder>
      <Icon>
        <href>3.png</href>
      </Icon>
      <LatLonBox>
        <north>41.21263889999999</north>
        <south>40.92819445555555</south>
        <east>27.49569443333334</east>
        <west>27.21124998888890</west>
      </LatLonBox>
    </GroundOverlay>

    <NetworkLink>
      <name>6/8/7.png</name>
      <Region>
        <LatLonAltBox>
          <north>41.07041667777777</north>
          <south>40.92819445555555</south>
          <east>27.35347221111113</east>
          <west>27.21124998888890</west>
        </LatLonAltBox>
        <Lod>
          <minLodPixels>128</minLodPixels>
          <maxLodPixels>-1</maxLodPixels>
        </Lod>
      </Region>
      <Link>
        <href>../../6/8/7.kml</href>
        <viewRefreshMode>onRegion</viewRefreshMode>
        <viewFormat/>
      </Link>
    </NetworkLink>
        
    <NetworkLink>
      <name>6/9/7.png</name>
      <Region>
        <LatLonAltBox>
          <north>41.07041667777777</north>
          <south>40.92819445555555</south>
          <east>27.49569443333335</east>
          <west>27.35347221111113</west>
        </LatLonAltBox>
        <Lod>
          <minLodPixels>128</minLodPixels>
          <maxLodPixels>-1</maxLodPixels>
        </Lod>
      </Region>
      <Link>
        <href>../../6/9/7.kml</href>
        <viewRefreshMode>onRegion</viewRefreshMode>
        <viewFormat/>
      </Link>
    </NetworkLink>
        
    <NetworkLink>
      <name>6/8/6.png</name>
      <Region>
        <LatLonAltBox>
          <north>41.21263889999999</north>
          <south>41.07041667777777</south>
          <east>27.35347221111113</east>
          <west>27.21124998888890</west>
        </LatLonAltBox>
        <Lod>
          <minLodPixels>128</minLodPixels>
          <maxLodPixels>-1</maxLodPixels>
        </Lod>
      </Region>
      <Link>
        <href>../../6/8/6.kml</href>
        <viewRefreshMode>onRegion</viewRefreshMode>
        <viewFormat/>
      </Link>
    </NetworkLink>
        
    <NetworkLink>
      <name>6/9/6.png</name>
      <Region>
        <LatLonAltBox>
          <north>41.21263889999999</north>
          <south>41.07041667777777</south>
          <east>27.49569443333335</east>
          <west>27.35347221111113</west>
        </LatLonAltBox>
        <Lod>
          <minLodPixels>128</minLodPixels>
          <maxLodPixels>-1</maxLodPixels>
        </Lod>
      </Region>
      <Link>
        <href>../../6/9/6.kml</href>
        <viewRefreshMode>onRegion</viewRefreshMode>
        <viewFormat/>
      </Link>
    </NetworkLink>
              </Document>
</kml>
    