<?xml version="1.0" encoding="utf-8"?>
<kml xmlns="http://www.opengis.net/kml/2.2">
  <Document>
    <name>7/0/2.kml</name>
    <description></description>
    <Style>
      <ListStyle id="hideChildren">
        <listItemType>checkHideChildren</listItemType>
      </ListStyle>
    </Style>
    <Region>
      <LatLonAltBox>
        <north>41.92375001111110</north>
        <south>41.85263890000000</south>
        <east>26.14458332222224</east>
        <west>26.07347221111112</west>
      </LatLonAltBox>
      <Lod>
        <minLodPixels>128</minLodPixels>
        <maxLodPixels>-1</maxLodPixels>
      </Lod>
    </Region>
    <GroundOverlay>
      <drawOrder>15</drawOrder>
      <Icon>
        <href>2.png</href>
      </Icon>
      <LatLonBox>
        <north>41.92375001111110</north>
        <south>41.85263890000000</south>
        <east>26.14458332222224</east>
        <west>26.07347221111112</west>
      </LatLonBox>
    </GroundOverlay>
      </Document>
</kml>
    