<?xml version="1.0" encoding="utf-8"?>
<kml xmlns="http://www.opengis.net/kml/2.2">
  <Document>
    <name>6/5/22.kml</name>
    <description></description>
    <Style>
      <ListStyle id="hideChildren">
        <listItemType>checkHideChildren</listItemType>
      </ListStyle>
    </Style>
    <Region>
      <LatLonAltBox>
        <north>38.93708334444444</north>
        <south>38.79486112222222</south>
        <east>26.92680554444446</east>
        <west>26.78458332222224</west>
      </LatLonAltBox>
      <Lod>
        <minLodPixels>128</minLodPixels>
        <maxLodPixels>2048</maxLodPixels>
      </Lod>
    </Region>
    <GroundOverlay>
      <drawOrder>12</drawOrder>
      <Icon>
        <href>22.png</href>
      </Icon>
      <LatLonBox>
        <north>38.93708334444444</north>
        <south>38.79486112222222</south>
        <east>26.92680554444446</east>
        <west>26.78458332222224</west>
      </LatLonBox>
    </GroundOverlay>

    <NetworkLink>
      <name>7/10/45.png</name>
      <Region>
        <LatLonAltBox>
          <north>38.86597223333332</north>
          <south>38.79486112222222</south>
          <east>26.85569443333335</east>
          <west>26.78458332222224</west>
        </LatLonAltBox>
        <Lod>
          <minLodPixels>128</minLodPixels>
          <maxLodPixels>-1</maxLodPixels>
        </Lod>
      </Region>
      <Link>
        <href>../../7/10/45.kml</href>
        <viewRefreshMode>onRegion</viewRefreshMode>
        <viewFormat/>
      </Link>
    </NetworkLink>
        
    <NetworkLink>
      <name>7/11/45.png</name>
      <Region>
        <LatLonAltBox>
          <north>38.86597223333332</north>
          <south>38.79486112222222</south>
          <east>26.92680554444446</east>
          <west>26.85569443333335</west>
        </LatLonAltBox>
        <Lod>
          <minLodPixels>128</minLodPixels>
          <maxLodPixels>-1</maxLodPixels>
        </Lod>
      </Region>
      <Link>
        <href>../../7/11/45.kml</href>
        <viewRefreshMode>onRegion</viewRefreshMode>
        <viewFormat/>
      </Link>
    </NetworkLink>
        
    <NetworkLink>
      <name>7/10/44.png</name>
      <Region>
        <LatLonAltBox>
          <north>38.93708334444444</north>
          <south>38.86597223333333</south>
          <east>26.85569443333335</east>
          <west>26.78458332222224</west>
        </LatLonAltBox>
        <Lod>
          <minLodPixels>128</minLodPixels>
          <maxLodPixels>-1</maxLodPixels>
        </Lod>
      </Region>
      <Link>
        <href>../../7/10/44.kml</href>
        <viewRefreshMode>onRegion</viewRefreshMode>
        <viewFormat/>
      </Link>
    </NetworkLink>
        
    <NetworkLink>
      <name>7/11/44.png</name>
      <Region>
        <LatLonAltBox>
          <north>38.93708334444444</north>
          <south>38.86597223333333</south>
          <east>26.92680554444446</east>
          <west>26.85569443333335</west>
        </LatLonAltBox>
        <Lod>
          <minLodPixels>128</minLodPixels>
          <maxLodPixels>-1</maxLodPixels>
        </Lod>
      </Region>
      <Link>
        <href>../../7/11/44.kml</href>
        <viewRefreshMode>onRegion</viewRefreshMode>
        <viewFormat/>
      </Link>
    </NetworkLink>
              </Document>
</kml>
    