<?xml version="1.0" encoding="utf-8"?>
<kml xmlns="http://www.opengis.net/kml/2.2">
  <Document>
    <name>5/14/5.kml</name>
    <description></description>
    <Style>
      <ListStyle id="hideChildren">
        <listItemType>checkHideChildren</listItemType>
      </ListStyle>
    </Style>
    <Region>
      <LatLonAltBox>
        <north>40.64375001111110</north>
        <south>40.35930556666666</south>
        <east>30.34013887777779</east>
        <west>30.05569443333335</west>
      </LatLonAltBox>
      <Lod>
        <minLodPixels>128</minLodPixels>
        <maxLodPixels>2048</maxLodPixels>
      </Lod>
    </Region>
    <GroundOverlay>
      <drawOrder>10</drawOrder>
      <Icon>
        <href>5.png</href>
      </Icon>
      <LatLonBox>
        <north>40.64375001111110</north>
        <south>40.35930556666666</south>
        <east>30.34013887777779</east>
        <west>30.05569443333335</west>
      </LatLonBox>
    </GroundOverlay>

    <NetworkLink>
      <name>6/28/11.png</name>
      <Region>
        <LatLonAltBox>
          <north>40.50152778888888</north>
          <south>40.35930556666666</south>
          <east>30.19791665555557</east>
          <west>30.05569443333335</west>
        </LatLonAltBox>
        <Lod>
          <minLodPixels>128</minLodPixels>
          <maxLodPixels>-1</maxLodPixels>
        </Lod>
      </Region>
      <Link>
        <href>../../6/28/11.kml</href>
        <viewRefreshMode>onRegion</viewRefreshMode>
        <viewFormat/>
      </Link>
    </NetworkLink>
        
    <NetworkLink>
      <name>6/29/11.png</name>
      <Region>
        <LatLonAltBox>
          <north>40.50152778888888</north>
          <south>40.35930556666666</south>
          <east>30.34013887777779</east>
          <west>30.19791665555557</west>
        </LatLonAltBox>
        <Lod>
          <minLodPixels>128</minLodPixels>
          <maxLodPixels>-1</maxLodPixels>
        </Lod>
      </Region>
      <Link>
        <href>../../6/29/11.kml</href>
        <viewRefreshMode>onRegion</viewRefreshMode>
        <viewFormat/>
      </Link>
    </NetworkLink>
        
    <NetworkLink>
      <name>6/28/10.png</name>
      <Region>
        <LatLonAltBox>
          <north>40.64375001111110</north>
          <south>40.50152778888888</south>
          <east>30.19791665555557</east>
          <west>30.05569443333335</west>
        </LatLonAltBox>
        <Lod>
          <minLodPixels>128</minLodPixels>
          <maxLodPixels>-1</maxLodPixels>
        </Lod>
      </Region>
      <Link>
        <href>../../6/28/10.kml</href>
        <viewRefreshMode>onRegion</viewRefreshMode>
        <viewFormat/>
      </Link>
    </NetworkLink>
        
    <NetworkLink>
      <name>6/29/10.png</name>
      <Region>
        <LatLonAltBox>
          <north>40.64375001111110</north>
          <south>40.50152778888888</south>
          <east>30.34013887777779</east>
          <west>30.19791665555557</west>
        </LatLonAltBox>
        <Lod>
          <minLodPixels>128</minLodPixels>
          <maxLodPixels>-1</maxLodPixels>
        </Lod>
      </Region>
      <Link>
        <href>../../6/29/10.kml</href>
        <viewRefreshMode>onRegion</viewRefreshMode>
        <viewFormat/>
      </Link>
    </NetworkLink>
              </Document>
</kml>
    