<?xml version="1.0" encoding="utf-8"?>
<kml xmlns="http://www.opengis.net/kml/2.2">
  <Document>
    <name>6/33/12.kml</name>
    <description></description>
    <Style>
      <ListStyle id="hideChildren">
        <listItemType>checkHideChildren</listItemType>
      </ListStyle>
    </Style>
    <Region>
      <LatLonAltBox>
        <north>40.35930556666666</north>
        <south>40.21708334444444</south>
        <east>30.90902776666668</east>
        <west>30.76680554444446</west>
      </LatLonAltBox>
      <Lod>
        <minLodPixels>128</minLodPixels>
        <maxLodPixels>2048</maxLodPixels>
      </Lod>
    </Region>
    <GroundOverlay>
      <drawOrder>12</drawOrder>
      <Icon>
        <href>12.png</href>
      </Icon>
      <LatLonBox>
        <north>40.35930556666666</north>
        <south>40.21708334444444</south>
        <east>30.90902776666668</east>
        <west>30.76680554444446</west>
      </LatLonBox>
    </GroundOverlay>

    <NetworkLink>
      <name>7/66/25.png</name>
      <Region>
        <LatLonAltBox>
          <north>40.28819445555555</north>
          <south>40.21708334444444</south>
          <east>30.83791665555557</east>
          <west>30.76680554444446</west>
        </LatLonAltBox>
        <Lod>
          <minLodPixels>128</minLodPixels>
          <maxLodPixels>-1</maxLodPixels>
        </Lod>
      </Region>
      <Link>
        <href>../../7/66/25.kml</href>
        <viewRefreshMode>onRegion</viewRefreshMode>
        <viewFormat/>
      </Link>
    </NetworkLink>
        
    <NetworkLink>
      <name>7/67/25.png</name>
      <Region>
        <LatLonAltBox>
          <north>40.28819445555555</north>
          <south>40.21708334444444</south>
          <east>30.90902776666668</east>
          <west>30.83791665555557</west>
        </LatLonAltBox>
        <Lod>
          <minLodPixels>128</minLodPixels>
          <maxLodPixels>-1</maxLodPixels>
        </Lod>
      </Region>
      <Link>
        <href>../../7/67/25.kml</href>
        <viewRefreshMode>onRegion</viewRefreshMode>
        <viewFormat/>
      </Link>
    </NetworkLink>
        
    <NetworkLink>
      <name>7/66/24.png</name>
      <Region>
        <LatLonAltBox>
          <north>40.35930556666666</north>
          <south>40.28819445555555</south>
          <east>30.83791665555557</east>
          <west>30.76680554444446</west>
        </LatLonAltBox>
        <Lod>
          <minLodPixels>128</minLodPixels>
          <maxLodPixels>-1</maxLodPixels>
        </Lod>
      </Region>
      <Link>
        <href>../../7/66/24.kml</href>
        <viewRefreshMode>onRegion</viewRefreshMode>
        <viewFormat/>
      </Link>
    </NetworkLink>
        
    <NetworkLink>
      <name>7/67/24.png</name>
      <Region>
        <LatLonAltBox>
          <north>40.35930556666666</north>
          <south>40.28819445555555</south>
          <east>30.90902776666668</east>
          <west>30.83791665555557</west>
        </LatLonAltBox>
        <Lod>
          <minLodPixels>128</minLodPixels>
          <maxLodPixels>-1</maxLodPixels>
        </Lod>
      </Region>
      <Link>
        <href>../../7/67/24.kml</href>
        <viewRefreshMode>onRegion</viewRefreshMode>
        <viewFormat/>
      </Link>
    </NetworkLink>
              </Document>
</kml>
    