<?xml version="1.0" encoding="utf-8"?>
<kml xmlns="http://www.opengis.net/kml/2.2">
  <Document>
    <name>6/11/11.kml</name>
    <description></description>
    <Style>
      <ListStyle id="hideChildren">
        <listItemType>checkHideChildren</listItemType>
      </ListStyle>
    </Style>
    <Region>
      <LatLonAltBox>
        <north>40.50152778888888</north>
        <south>40.35930556666666</south>
        <east>27.78013887777779</east>
        <west>27.63791665555557</west>
      </LatLonAltBox>
      <Lod>
        <minLodPixels>128</minLodPixels>
        <maxLodPixels>2048</maxLodPixels>
      </Lod>
    </Region>
    <GroundOverlay>
      <drawOrder>12</drawOrder>
      <Icon>
        <href>11.png</href>
      </Icon>
      <LatLonBox>
        <north>40.50152778888888</north>
        <south>40.35930556666666</south>
        <east>27.78013887777779</east>
        <west>27.63791665555557</west>
      </LatLonBox>
    </GroundOverlay>

    <NetworkLink>
      <name>7/22/23.png</name>
      <Region>
        <LatLonAltBox>
          <north>40.43041667777777</north>
          <south>40.35930556666666</south>
          <east>27.70902776666668</east>
          <west>27.63791665555557</west>
        </LatLonAltBox>
        <Lod>
          <minLodPixels>128</minLodPixels>
          <maxLodPixels>-1</maxLodPixels>
        </Lod>
      </Region>
      <Link>
        <href>../../7/22/23.kml</href>
        <viewRefreshMode>onRegion</viewRefreshMode>
        <viewFormat/>
      </Link>
    </NetworkLink>
        
    <NetworkLink>
      <name>7/23/23.png</name>
      <Region>
        <LatLonAltBox>
          <north>40.43041667777777</north>
          <south>40.35930556666666</south>
          <east>27.78013887777779</east>
          <west>27.70902776666668</west>
        </LatLonAltBox>
        <Lod>
          <minLodPixels>128</minLodPixels>
          <maxLodPixels>-1</maxLodPixels>
        </Lod>
      </Region>
      <Link>
        <href>../../7/23/23.kml</href>
        <viewRefreshMode>onRegion</viewRefreshMode>
        <viewFormat/>
      </Link>
    </NetworkLink>
        
    <NetworkLink>
      <name>7/22/22.png</name>
      <Region>
        <LatLonAltBox>
          <north>40.50152778888888</north>
          <south>40.43041667777777</south>
          <east>27.70902776666668</east>
          <west>27.63791665555557</west>
        </LatLonAltBox>
        <Lod>
          <minLodPixels>128</minLodPixels>
          <maxLodPixels>-1</maxLodPixels>
        </Lod>
      </Region>
      <Link>
        <href>../../7/22/22.kml</href>
        <viewRefreshMode>onRegion</viewRefreshMode>
        <viewFormat/>
      </Link>
    </NetworkLink>
        
    <NetworkLink>
      <name>7/23/22.png</name>
      <Region>
        <LatLonAltBox>
          <north>40.50152778888888</north>
          <south>40.43041667777777</south>
          <east>27.78013887777779</east>
          <west>27.70902776666668</west>
        </LatLonAltBox>
        <Lod>
          <minLodPixels>128</minLodPixels>
          <maxLodPixels>-1</maxLodPixels>
        </Lod>
      </Region>
      <Link>
        <href>../../7/23/22.kml</href>
        <viewRefreshMode>onRegion</viewRefreshMode>
        <viewFormat/>
      </Link>
    </NetworkLink>
              </Document>
</kml>
    