<?xml version="1.0" encoding="utf-8"?>
<kml xmlns="http://www.opengis.net/kml/2.2">
  <Document>
    <name>2/2/0.kml</name>
    <description></description>
    <Style>
      <ListStyle id="hideChildren">
        <listItemType>checkHideChildren</listItemType>
      </ListStyle>
    </Style>
    <Region>
      <LatLonAltBox>
        <north>42.06597223333333</north>
        <south>39.79041667777777</south>
        <east>32.90013887777779</east>
        <west>30.62458332222224</west>
      </LatLonAltBox>
      <Lod>
        <minLodPixels>128</minLodPixels>
        <maxLodPixels>2048</maxLodPixels>
      </Lod>
    </Region>
    <GroundOverlay>
      <drawOrder>4</drawOrder>
      <Icon>
        <href>0.png</href>
      </Icon>
      <LatLonBox>
        <north>42.06597223333333</north>
        <south>39.79041667777777</south>
        <east>32.90013887777779</east>
        <west>30.62458332222224</west>
      </LatLonBox>
    </GroundOverlay>

    <NetworkLink>
      <name>3/4/1.png</name>
      <Region>
        <LatLonAltBox>
          <north>40.92819445555555</north>
          <south>39.79041667777777</south>
          <east>31.76236110000001</east>
          <west>30.62458332222224</west>
        </LatLonAltBox>
        <Lod>
          <minLodPixels>128</minLodPixels>
          <maxLodPixels>-1</maxLodPixels>
        </Lod>
      </Region>
      <Link>
        <href>../../3/4/1.kml</href>
        <viewRefreshMode>onRegion</viewRefreshMode>
        <viewFormat/>
      </Link>
    </NetworkLink>
        
    <NetworkLink>
      <name>3/5/1.png</name>
      <Region>
        <LatLonAltBox>
          <north>40.92819445555555</north>
          <south>39.79041667777777</south>
          <east>32.90013887777779</east>
          <west>31.76236110000001</west>
        </LatLonAltBox>
        <Lod>
          <minLodPixels>128</minLodPixels>
          <maxLodPixels>-1</maxLodPixels>
        </Lod>
      </Region>
      <Link>
        <href>../../3/5/1.kml</href>
        <viewRefreshMode>onRegion</viewRefreshMode>
        <viewFormat/>
      </Link>
    </NetworkLink>
        
    <NetworkLink>
      <name>3/4/0.png</name>
      <Region>
        <LatLonAltBox>
          <north>42.06597223333333</north>
          <south>40.92819445555555</south>
          <east>31.76236110000001</east>
          <west>30.62458332222224</west>
        </LatLonAltBox>
        <Lod>
          <minLodPixels>128</minLodPixels>
          <maxLodPixels>-1</maxLodPixels>
        </Lod>
      </Region>
      <Link>
        <href>../../3/4/0.kml</href>
        <viewRefreshMode>onRegion</viewRefreshMode>
        <viewFormat/>
      </Link>
    </NetworkLink>
        
    <NetworkLink>
      <name>3/5/0.png</name>
      <Region>
        <LatLonAltBox>
          <north>42.06597223333333</north>
          <south>40.92819445555555</south>
          <east>32.90013887777779</east>
          <west>31.76236110000001</west>
        </LatLonAltBox>
        <Lod>
          <minLodPixels>128</minLodPixels>
          <maxLodPixels>-1</maxLodPixels>
        </Lod>
      </Region>
      <Link>
        <href>../../3/5/0.kml</href>
        <viewRefreshMode>onRegion</viewRefreshMode>
        <viewFormat/>
      </Link>
    </NetworkLink>
              </Document>
</kml>
    