<?xml version="1.0" encoding="utf-8"?>
<kml xmlns="http://www.opengis.net/kml/2.2">
  <Document>
    <name>7/46/13.kml</name>
    <description></description>
    <Style>
      <ListStyle id="hideChildren">
        <listItemType>checkHideChildren</listItemType>
      </ListStyle>
    </Style>
    <Region>
      <LatLonAltBox>
        <north>41.14152778888888</north>
        <south>41.07041667777777</south>
        <east>29.41569443333335</east>
        <west>29.34458332222223</west>
      </LatLonAltBox>
      <Lod>
        <minLodPixels>128</minLodPixels>
        <maxLodPixels>-1</maxLodPixels>
      </Lod>
    </Region>
    <GroundOverlay>
      <drawOrder>14</drawOrder>
      <Icon>
        <href>13.png</href>
      </Icon>
      <LatLonBox>
        <north>41.14152778888888</north>
        <south>41.07041667777777</south>
        <east>29.41569443333335</east>
        <west>29.34458332222223</west>
      </LatLonBox>
    </GroundOverlay>
      </Document>
</kml>
    