<?xml version="1.0" encoding="utf-8"?>
<kml xmlns="http://www.opengis.net/kml/2.2">
  <Document>
    <name>5/13/7.kml</name>
    <description></description>
    <Style>
      <ListStyle id="hideChildren">
        <listItemType>checkHideChildren</listItemType>
      </ListStyle>
    </Style>
    <Region>
      <LatLonAltBox>
        <north>40.07486112222222</north>
        <south>39.79041667777777</south>
        <east>30.05569443333334</east>
        <west>29.77124998888890</west>
      </LatLonAltBox>
      <Lod>
        <minLodPixels>128</minLodPixels>
        <maxLodPixels>2048</maxLodPixels>
      </Lod>
    </Region>
    <GroundOverlay>
      <drawOrder>10</drawOrder>
      <Icon>
        <href>7.png</href>
      </Icon>
      <LatLonBox>
        <north>40.07486112222222</north>
        <south>39.79041667777777</south>
        <east>30.05569443333334</east>
        <west>29.77124998888890</west>
      </LatLonBox>
    </GroundOverlay>

    <NetworkLink>
      <name>6/26/15.png</name>
      <Region>
        <LatLonAltBox>
          <north>39.93263889999999</north>
          <south>39.79041667777777</south>
          <east>29.91347221111112</east>
          <west>29.77124998888890</west>
        </LatLonAltBox>
        <Lod>
          <minLodPixels>128</minLodPixels>
          <maxLodPixels>-1</maxLodPixels>
        </Lod>
      </Region>
      <Link>
        <href>../../6/26/15.kml</href>
        <viewRefreshMode>onRegion</viewRefreshMode>
        <viewFormat/>
      </Link>
    </NetworkLink>
        
    <NetworkLink>
      <name>6/27/15.png</name>
      <Region>
        <LatLonAltBox>
          <north>39.93263889999999</north>
          <south>39.79041667777777</south>
          <east>30.05569443333335</east>
          <west>29.91347221111112</west>
        </LatLonAltBox>
        <Lod>
          <minLodPixels>128</minLodPixels>
          <maxLodPixels>-1</maxLodPixels>
        </Lod>
      </Region>
      <Link>
        <href>../../6/27/15.kml</href>
        <viewRefreshMode>onRegion</viewRefreshMode>
        <viewFormat/>
      </Link>
    </NetworkLink>
        
    <NetworkLink>
      <name>6/26/14.png</name>
      <Region>
        <LatLonAltBox>
          <north>40.07486112222222</north>
          <south>39.93263889999999</south>
          <east>29.91347221111112</east>
          <west>29.77124998888890</west>
        </LatLonAltBox>
        <Lod>
          <minLodPixels>128</minLodPixels>
          <maxLodPixels>-1</maxLodPixels>
        </Lod>
      </Region>
      <Link>
        <href>../../6/26/14.kml</href>
        <viewRefreshMode>onRegion</viewRefreshMode>
        <viewFormat/>
      </Link>
    </NetworkLink>
        
    <NetworkLink>
      <name>6/27/14.png</name>
      <Region>
        <LatLonAltBox>
          <north>40.07486112222222</north>
          <south>39.93263889999999</south>
          <east>30.05569443333335</east>
          <west>29.91347221111112</west>
        </LatLonAltBox>
        <Lod>
          <minLodPixels>128</minLodPixels>
          <maxLodPixels>-1</maxLodPixels>
        </Lod>
      </Region>
      <Link>
        <href>../../6/27/14.kml</href>
        <viewRefreshMode>onRegion</viewRefreshMode>
        <viewFormat/>
      </Link>
    </NetworkLink>
              </Document>
</kml>
    