<?xml version="1.0" encoding="utf-8"?>
<kml xmlns="http://www.opengis.net/kml/2.2">
  <Document>
    <name>7/48/18.kml</name>
    <description></description>
    <Style>
      <ListStyle id="hideChildren">
        <listItemType>checkHideChildren</listItemType>
      </ListStyle>
    </Style>
    <Region>
      <LatLonAltBox>
        <north>40.78597223333333</north>
        <south>40.71486112222222</south>
        <east>29.55791665555557</east>
        <west>29.48680554444446</west>
      </LatLonAltBox>
      <Lod>
        <minLodPixels>128</minLodPixels>
        <maxLodPixels>-1</maxLodPixels>
      </Lod>
    </Region>
    <GroundOverlay>
      <drawOrder>14</drawOrder>
      <Icon>
        <href>18.png</href>
      </Icon>
      <LatLonBox>
        <north>40.78597223333333</north>
        <south>40.71486112222222</south>
        <east>29.55791665555557</east>
        <west>29.48680554444446</west>
      </LatLonBox>
    </GroundOverlay>
      </Document>
</kml>
    