<?xml version="1.0" encoding="utf-8"?>
<kml xmlns="http://www.opengis.net/kml/2.2">
  <Document>
    <name>6/2/17.kml</name>
    <description></description>
    <Style>
      <ListStyle id="hideChildren">
        <listItemType>checkHideChildren</listItemType>
      </ListStyle>
    </Style>
    <Region>
      <LatLonAltBox>
        <north>39.64819445555555</north>
        <south>39.50597223333332</south>
        <east>26.50013887777779</east>
        <west>26.35791665555557</west>
      </LatLonAltBox>
      <Lod>
        <minLodPixels>128</minLodPixels>
        <maxLodPixels>2048</maxLodPixels>
      </Lod>
    </Region>
    <GroundOverlay>
      <drawOrder>12</drawOrder>
      <Icon>
        <href>17.png</href>
      </Icon>
      <LatLonBox>
        <north>39.64819445555555</north>
        <south>39.50597223333332</south>
        <east>26.50013887777779</east>
        <west>26.35791665555557</west>
      </LatLonBox>
    </GroundOverlay>

    <NetworkLink>
      <name>7/4/35.png</name>
      <Region>
        <LatLonAltBox>
          <north>39.57708334444444</north>
          <south>39.50597223333333</south>
          <east>26.42902776666668</east>
          <west>26.35791665555557</west>
        </LatLonAltBox>
        <Lod>
          <minLodPixels>128</minLodPixels>
          <maxLodPixels>-1</maxLodPixels>
        </Lod>
      </Region>
      <Link>
        <href>../../7/4/35.kml</href>
        <viewRefreshMode>onRegion</viewRefreshMode>
        <viewFormat/>
      </Link>
    </NetworkLink>
        
    <NetworkLink>
      <name>7/5/35.png</name>
      <Region>
        <LatLonAltBox>
          <north>39.57708334444444</north>
          <south>39.50597223333333</south>
          <east>26.50013887777779</east>
          <west>26.42902776666668</west>
        </LatLonAltBox>
        <Lod>
          <minLodPixels>128</minLodPixels>
          <maxLodPixels>-1</maxLodPixels>
        </Lod>
      </Region>
      <Link>
        <href>../../7/5/35.kml</href>
        <viewRefreshMode>onRegion</viewRefreshMode>
        <viewFormat/>
      </Link>
    </NetworkLink>
        
    <NetworkLink>
      <name>7/4/34.png</name>
      <Region>
        <LatLonAltBox>
          <north>39.64819445555555</north>
          <south>39.57708334444444</south>
          <east>26.42902776666668</east>
          <west>26.35791665555557</west>
        </LatLonAltBox>
        <Lod>
          <minLodPixels>128</minLodPixels>
          <maxLodPixels>-1</maxLodPixels>
        </Lod>
      </Region>
      <Link>
        <href>../../7/4/34.kml</href>
        <viewRefreshMode>onRegion</viewRefreshMode>
        <viewFormat/>
      </Link>
    </NetworkLink>
        
    <NetworkLink>
      <name>7/5/34.png</name>
      <Region>
        <LatLonAltBox>
          <north>39.64819445555555</north>
          <south>39.57708334444444</south>
          <east>26.50013887777779</east>
          <west>26.42902776666668</west>
        </LatLonAltBox>
        <Lod>
          <minLodPixels>128</minLodPixels>
          <maxLodPixels>-1</maxLodPixels>
        </Lod>
      </Region>
      <Link>
        <href>../../7/5/34.kml</href>
        <viewRefreshMode>onRegion</viewRefreshMode>
        <viewFormat/>
      </Link>
    </NetworkLink>
              </Document>
</kml>
    