<?xml version="1.0" encoding="utf-8"?>
<kml xmlns="http://www.opengis.net/kml/2.2">
  <Document>
    <name>6/40/2.kml</name>
    <description></description>
    <Style>
      <ListStyle id="hideChildren">
        <listItemType>checkHideChildren</listItemType>
      </ListStyle>
    </Style>
    <Region>
      <LatLonAltBox>
        <north>41.78152778888888</north>
        <south>41.63930556666666</south>
        <east>31.90458332222224</east>
        <west>31.76236110000001</west>
      </LatLonAltBox>
      <Lod>
        <minLodPixels>128</minLodPixels>
        <maxLodPixels>2048</maxLodPixels>
      </Lod>
    </Region>
    <GroundOverlay>
      <drawOrder>12</drawOrder>
      <Icon>
        <href>2.png</href>
      </Icon>
      <LatLonBox>
        <north>41.78152778888888</north>
        <south>41.63930556666666</south>
        <east>31.90458332222224</east>
        <west>31.76236110000001</west>
      </LatLonBox>
    </GroundOverlay>

    <NetworkLink>
      <name>7/80/5.png</name>
      <Region>
        <LatLonAltBox>
          <north>41.71041667777777</north>
          <south>41.63930556666666</south>
          <east>31.83347221111113</east>
          <west>31.76236110000001</west>
        </LatLonAltBox>
        <Lod>
          <minLodPixels>128</minLodPixels>
          <maxLodPixels>-1</maxLodPixels>
        </Lod>
      </Region>
      <Link>
        <href>../../7/80/5.kml</href>
        <viewRefreshMode>onRegion</viewRefreshMode>
        <viewFormat/>
      </Link>
    </NetworkLink>
        
    <NetworkLink>
      <name>7/81/5.png</name>
      <Region>
        <LatLonAltBox>
          <north>41.71041667777777</north>
          <south>41.63930556666666</south>
          <east>31.90458332222223</east>
          <west>31.83347221111112</west>
        </LatLonAltBox>
        <Lod>
          <minLodPixels>128</minLodPixels>
          <maxLodPixels>-1</maxLodPixels>
        </Lod>
      </Region>
      <Link>
        <href>../../7/81/5.kml</href>
        <viewRefreshMode>onRegion</viewRefreshMode>
        <viewFormat/>
      </Link>
    </NetworkLink>
        
    <NetworkLink>
      <name>7/80/4.png</name>
      <Region>
        <LatLonAltBox>
          <north>41.78152778888888</north>
          <south>41.71041667777777</south>
          <east>31.83347221111113</east>
          <west>31.76236110000001</west>
        </LatLonAltBox>
        <Lod>
          <minLodPixels>128</minLodPixels>
          <maxLodPixels>-1</maxLodPixels>
        </Lod>
      </Region>
      <Link>
        <href>../../7/80/4.kml</href>
        <viewRefreshMode>onRegion</viewRefreshMode>
        <viewFormat/>
      </Link>
    </NetworkLink>
        
    <NetworkLink>
      <name>7/81/4.png</name>
      <Region>
        <LatLonAltBox>
          <north>41.78152778888888</north>
          <south>41.71041667777777</south>
          <east>31.90458332222223</east>
          <west>31.83347221111112</west>
        </LatLonAltBox>
        <Lod>
          <minLodPixels>128</minLodPixels>
          <maxLodPixels>-1</maxLodPixels>
        </Lod>
      </Region>
      <Link>
        <href>../../7/81/4.kml</href>
        <viewRefreshMode>onRegion</viewRefreshMode>
        <viewFormat/>
      </Link>
    </NetworkLink>
              </Document>
</kml>
    