<?xml version="1.0" encoding="utf-8"?>
<kml xmlns="http://www.opengis.net/kml/2.2">
  <Document>
    <name>7/5/10.kml</name>
    <description></description>
    <Style>
      <ListStyle id="hideChildren">
        <listItemType>checkHideChildren</listItemType>
      </ListStyle>
    </Style>
    <Region>
      <LatLonAltBox>
        <north>41.35486112222222</north>
        <south>41.28375001111111</south>
        <east>26.50013887777779</east>
        <west>26.42902776666668</west>
      </LatLonAltBox>
      <Lod>
        <minLodPixels>128</minLodPixels>
        <maxLodPixels>-1</maxLodPixels>
      </Lod>
    </Region>
    <GroundOverlay>
      <drawOrder>14</drawOrder>
      <Icon>
        <href>10.png</href>
      </Icon>
      <LatLonBox>
        <north>41.35486112222222</north>
        <south>41.28375001111111</south>
        <east>26.50013887777779</east>
        <west>26.42902776666668</west>
      </LatLonBox>
    </GroundOverlay>
      </Document>
</kml>
    