<?xml version="1.0" encoding="utf-8"?>
<kml xmlns="http://www.opengis.net/kml/2.2">
  <Document>
    <name>6/43/15.kml</name>
    <description></description>
    <Style>
      <ListStyle id="hideChildren">
        <listItemType>checkHideChildren</listItemType>
      </ListStyle>
    </Style>
    <Region>
      <LatLonAltBox>
        <north>39.93263889999999</north>
        <south>39.79041667777777</south>
        <east>32.33124998888891</east>
        <west>32.18902776666668</west>
      </LatLonAltBox>
      <Lod>
        <minLodPixels>128</minLodPixels>
        <maxLodPixels>2048</maxLodPixels>
      </Lod>
    </Region>
    <GroundOverlay>
      <drawOrder>12</drawOrder>
      <Icon>
        <href>15.png</href>
      </Icon>
      <LatLonBox>
        <north>39.93263889999999</north>
        <south>39.79041667777777</south>
        <east>32.33124998888891</east>
        <west>32.18902776666668</west>
      </LatLonBox>
    </GroundOverlay>

    <NetworkLink>
      <name>7/86/31.png</name>
      <Region>
        <LatLonAltBox>
          <north>39.86152778888888</north>
          <south>39.79041667777777</south>
          <east>32.26013887777779</east>
          <west>32.18902776666668</west>
        </LatLonAltBox>
        <Lod>
          <minLodPixels>128</minLodPixels>
          <maxLodPixels>-1</maxLodPixels>
        </Lod>
      </Region>
      <Link>
        <href>../../7/86/31.kml</href>
        <viewRefreshMode>onRegion</viewRefreshMode>
        <viewFormat/>
      </Link>
    </NetworkLink>
        
    <NetworkLink>
      <name>7/87/31.png</name>
      <Region>
        <LatLonAltBox>
          <north>39.86152778888888</north>
          <south>39.79041667777777</south>
          <east>32.33124998888890</east>
          <west>32.26013887777779</west>
        </LatLonAltBox>
        <Lod>
          <minLodPixels>128</minLodPixels>
          <maxLodPixels>-1</maxLodPixels>
        </Lod>
      </Region>
      <Link>
        <href>../../7/87/31.kml</href>
        <viewRefreshMode>onRegion</viewRefreshMode>
        <viewFormat/>
      </Link>
    </NetworkLink>
        
    <NetworkLink>
      <name>7/86/30.png</name>
      <Region>
        <LatLonAltBox>
          <north>39.93263889999999</north>
          <south>39.86152778888889</south>
          <east>32.26013887777779</east>
          <west>32.18902776666668</west>
        </LatLonAltBox>
        <Lod>
          <minLodPixels>128</minLodPixels>
          <maxLodPixels>-1</maxLodPixels>
        </Lod>
      </Region>
      <Link>
        <href>../../7/86/30.kml</href>
        <viewRefreshMode>onRegion</viewRefreshMode>
        <viewFormat/>
      </Link>
    </NetworkLink>
        
    <NetworkLink>
      <name>7/87/30.png</name>
      <Region>
        <LatLonAltBox>
          <north>39.93263889999999</north>
          <south>39.86152778888889</south>
          <east>32.33124998888890</east>
          <west>32.26013887777779</west>
        </LatLonAltBox>
        <Lod>
          <minLodPixels>128</minLodPixels>
          <maxLodPixels>-1</maxLodPixels>
        </Lod>
      </Region>
      <Link>
        <href>../../7/87/30.kml</href>
        <viewRefreshMode>onRegion</viewRefreshMode>
        <viewFormat/>
      </Link>
    </NetworkLink>
              </Document>
</kml>
    