<?xml version="1.0" encoding="utf-8"?>
<kml xmlns="http://www.opengis.net/kml/2.2">
  <Document>
    <name>6/35/9.kml</name>
    <description></description>
    <Style>
      <ListStyle id="hideChildren">
        <listItemType>checkHideChildren</listItemType>
      </ListStyle>
    </Style>
    <Region>
      <LatLonAltBox>
        <north>40.78597223333333</north>
        <south>40.64375001111110</south>
        <east>31.19347221111112</east>
        <west>31.05124998888890</west>
      </LatLonAltBox>
      <Lod>
        <minLodPixels>128</minLodPixels>
        <maxLodPixels>2048</maxLodPixels>
      </Lod>
    </Region>
    <GroundOverlay>
      <drawOrder>12</drawOrder>
      <Icon>
        <href>9.png</href>
      </Icon>
      <LatLonBox>
        <north>40.78597223333333</north>
        <south>40.64375001111110</south>
        <east>31.19347221111112</east>
        <west>31.05124998888890</west>
      </LatLonBox>
    </GroundOverlay>

    <NetworkLink>
      <name>7/70/19.png</name>
      <Region>
        <LatLonAltBox>
          <north>40.71486112222222</north>
          <south>40.64375001111111</south>
          <east>31.12236110000001</east>
          <west>31.05124998888890</west>
        </LatLonAltBox>
        <Lod>
          <minLodPixels>128</minLodPixels>
          <maxLodPixels>-1</maxLodPixels>
        </Lod>
      </Region>
      <Link>
        <href>../../7/70/19.kml</href>
        <viewRefreshMode>onRegion</viewRefreshMode>
        <viewFormat/>
      </Link>
    </NetworkLink>
        
    <NetworkLink>
      <name>7/71/19.png</name>
      <Region>
        <LatLonAltBox>
          <north>40.71486112222222</north>
          <south>40.64375001111111</south>
          <east>31.19347221111112</east>
          <west>31.12236110000001</west>
        </LatLonAltBox>
        <Lod>
          <minLodPixels>128</minLodPixels>
          <maxLodPixels>-1</maxLodPixels>
        </Lod>
      </Region>
      <Link>
        <href>../../7/71/19.kml</href>
        <viewRefreshMode>onRegion</viewRefreshMode>
        <viewFormat/>
      </Link>
    </NetworkLink>
        
    <NetworkLink>
      <name>7/70/18.png</name>
      <Region>
        <LatLonAltBox>
          <north>40.78597223333333</north>
          <south>40.71486112222222</south>
          <east>31.12236110000001</east>
          <west>31.05124998888890</west>
        </LatLonAltBox>
        <Lod>
          <minLodPixels>128</minLodPixels>
          <maxLodPixels>-1</maxLodPixels>
        </Lod>
      </Region>
      <Link>
        <href>../../7/70/18.kml</href>
        <viewRefreshMode>onRegion</viewRefreshMode>
        <viewFormat/>
      </Link>
    </NetworkLink>
        
    <NetworkLink>
      <name>7/71/18.png</name>
      <Region>
        <LatLonAltBox>
          <north>40.78597223333333</north>
          <south>40.71486112222222</south>
          <east>31.19347221111112</east>
          <west>31.12236110000001</west>
        </LatLonAltBox>
        <Lod>
          <minLodPixels>128</minLodPixels>
          <maxLodPixels>-1</maxLodPixels>
        </Lod>
      </Region>
      <Link>
        <href>../../7/71/18.kml</href>
        <viewRefreshMode>onRegion</viewRefreshMode>
        <viewFormat/>
      </Link>
    </NetworkLink>
              </Document>
</kml>
    