<?xml version="1.0" encoding="utf-8"?>
<kml xmlns="http://www.opengis.net/kml/2.2">
  <Document>
    <name>6/20/16.kml</name>
    <description></description>
    <Style>
      <ListStyle id="hideChildren">
        <listItemType>checkHideChildren</listItemType>
      </ListStyle>
    </Style>
    <Region>
      <LatLonAltBox>
        <north>39.79041667777777</north>
        <south>39.64819445555555</south>
        <east>29.06013887777779</east>
        <west>28.91791665555557</west>
      </LatLonAltBox>
      <Lod>
        <minLodPixels>128</minLodPixels>
        <maxLodPixels>2048</maxLodPixels>
      </Lod>
    </Region>
    <GroundOverlay>
      <drawOrder>12</drawOrder>
      <Icon>
        <href>16.png</href>
      </Icon>
      <LatLonBox>
        <north>39.79041667777777</north>
        <south>39.64819445555555</south>
        <east>29.06013887777779</east>
        <west>28.91791665555557</west>
      </LatLonBox>
    </GroundOverlay>

    <NetworkLink>
      <name>7/40/33.png</name>
      <Region>
        <LatLonAltBox>
          <north>39.71930556666666</north>
          <south>39.64819445555555</south>
          <east>28.98902776666668</east>
          <west>28.91791665555557</west>
        </LatLonAltBox>
        <Lod>
          <minLodPixels>128</minLodPixels>
          <maxLodPixels>-1</maxLodPixels>
        </Lod>
      </Region>
      <Link>
        <href>../../7/40/33.kml</href>
        <viewRefreshMode>onRegion</viewRefreshMode>
        <viewFormat/>
      </Link>
    </NetworkLink>
        
    <NetworkLink>
      <name>7/41/33.png</name>
      <Region>
        <LatLonAltBox>
          <north>39.71930556666666</north>
          <south>39.64819445555555</south>
          <east>29.06013887777779</east>
          <west>28.98902776666668</west>
        </LatLonAltBox>
        <Lod>
          <minLodPixels>128</minLodPixels>
          <maxLodPixels>-1</maxLodPixels>
        </Lod>
      </Region>
      <Link>
        <href>../../7/41/33.kml</href>
        <viewRefreshMode>onRegion</viewRefreshMode>
        <viewFormat/>
      </Link>
    </NetworkLink>
        
    <NetworkLink>
      <name>7/40/32.png</name>
      <Region>
        <LatLonAltBox>
          <north>39.79041667777777</north>
          <south>39.71930556666666</south>
          <east>28.98902776666668</east>
          <west>28.91791665555557</west>
        </LatLonAltBox>
        <Lod>
          <minLodPixels>128</minLodPixels>
          <maxLodPixels>-1</maxLodPixels>
        </Lod>
      </Region>
      <Link>
        <href>../../7/40/32.kml</href>
        <viewRefreshMode>onRegion</viewRefreshMode>
        <viewFormat/>
      </Link>
    </NetworkLink>
        
    <NetworkLink>
      <name>7/41/32.png</name>
      <Region>
        <LatLonAltBox>
          <north>39.79041667777777</north>
          <south>39.71930556666666</south>
          <east>29.06013887777779</east>
          <west>28.98902776666668</west>
        </LatLonAltBox>
        <Lod>
          <minLodPixels>128</minLodPixels>
          <maxLodPixels>-1</maxLodPixels>
        </Lod>
      </Region>
      <Link>
        <href>../../7/41/32.kml</href>
        <viewRefreshMode>onRegion</viewRefreshMode>
        <viewFormat/>
      </Link>
    </NetworkLink>
              </Document>
</kml>
    