<?xml version="1.0" encoding="utf-8"?>
<kml xmlns="http://www.opengis.net/kml/2.2">
  <Document>
    <name>6/20/5.kml</name>
    <description></description>
    <Style>
      <ListStyle id="hideChildren">
        <listItemType>checkHideChildren</listItemType>
      </ListStyle>
    </Style>
    <Region>
      <LatLonAltBox>
        <north>41.35486112222222</north>
        <south>41.21263889999999</south>
        <east>29.06013887777779</east>
        <west>28.91791665555557</west>
      </LatLonAltBox>
      <Lod>
        <minLodPixels>128</minLodPixels>
        <maxLodPixels>2048</maxLodPixels>
      </Lod>
    </Region>
    <GroundOverlay>
      <drawOrder>12</drawOrder>
      <Icon>
        <href>5.png</href>
      </Icon>
      <LatLonBox>
        <north>41.35486112222222</north>
        <south>41.21263889999999</south>
        <east>29.06013887777779</east>
        <west>28.91791665555557</west>
      </LatLonBox>
    </GroundOverlay>

    <NetworkLink>
      <name>7/40/11.png</name>
      <Region>
        <LatLonAltBox>
          <north>41.28375001111110</north>
          <south>41.21263889999999</south>
          <east>28.98902776666668</east>
          <west>28.91791665555557</west>
        </LatLonAltBox>
        <Lod>
          <minLodPixels>128</minLodPixels>
          <maxLodPixels>-1</maxLodPixels>
        </Lod>
      </Region>
      <Link>
        <href>../../7/40/11.kml</href>
        <viewRefreshMode>onRegion</viewRefreshMode>
        <viewFormat/>
      </Link>
    </NetworkLink>
        
    <NetworkLink>
      <name>7/41/11.png</name>
      <Region>
        <LatLonAltBox>
          <north>41.28375001111110</north>
          <south>41.21263889999999</south>
          <east>29.06013887777779</east>
          <west>28.98902776666668</west>
        </LatLonAltBox>
        <Lod>
          <minLodPixels>128</minLodPixels>
          <maxLodPixels>-1</maxLodPixels>
        </Lod>
      </Region>
      <Link>
        <href>../../7/41/11.kml</href>
        <viewRefreshMode>onRegion</viewRefreshMode>
        <viewFormat/>
      </Link>
    </NetworkLink>
        
    <NetworkLink>
      <name>7/40/10.png</name>
      <Region>
        <LatLonAltBox>
          <north>41.35486112222222</north>
          <south>41.28375001111111</south>
          <east>28.98902776666668</east>
          <west>28.91791665555557</west>
        </LatLonAltBox>
        <Lod>
          <minLodPixels>128</minLodPixels>
          <maxLodPixels>-1</maxLodPixels>
        </Lod>
      </Region>
      <Link>
        <href>../../7/40/10.kml</href>
        <viewRefreshMode>onRegion</viewRefreshMode>
        <viewFormat/>
      </Link>
    </NetworkLink>
        
    <NetworkLink>
      <name>7/41/10.png</name>
      <Region>
        <LatLonAltBox>
          <north>41.35486112222222</north>
          <south>41.28375001111111</south>
          <east>29.06013887777779</east>
          <west>28.98902776666668</west>
        </LatLonAltBox>
        <Lod>
          <minLodPixels>128</minLodPixels>
          <maxLodPixels>-1</maxLodPixels>
        </Lod>
      </Region>
      <Link>
        <href>../../7/41/10.kml</href>
        <viewRefreshMode>onRegion</viewRefreshMode>
        <viewFormat/>
      </Link>
    </NetworkLink>
              </Document>
</kml>
    