<?xml version="1.0" encoding="utf-8"?>
<kml xmlns="http://www.opengis.net/kml/2.2">
  <Document>
    <name>7/60/4.kml</name>
    <description></description>
    <Style>
      <ListStyle id="hideChildren">
        <listItemType>checkHideChildren</listItemType>
      </ListStyle>
    </Style>
    <Region>
      <LatLonAltBox>
        <north>41.78152778888888</north>
        <south>41.71041667777777</south>
        <east>30.41124998888890</east>
        <west>30.34013887777779</west>
      </LatLonAltBox>
      <Lod>
        <minLodPixels>128</minLodPixels>
        <maxLodPixels>-1</maxLodPixels>
      </Lod>
    </Region>
    <GroundOverlay>
      <drawOrder>14</drawOrder>
      <Icon>
        <href>4.png</href>
      </Icon>
      <LatLonBox>
        <north>41.78152778888888</north>
        <south>41.71041667777777</south>
        <east>30.41124998888890</east>
        <west>30.34013887777779</west>
      </LatLonBox>
    </GroundOverlay>
      </Document>
</kml>
    