<?xml version="1.0" encoding="utf-8"?>
<kml xmlns="http://www.opengis.net/kml/2.2">
  <Document>
    <name>7/69/43.kml</name>
    <description></description>
    <Style>
      <ListStyle id="hideChildren">
        <listItemType>checkHideChildren</listItemType>
      </ListStyle>
    </Style>
    <Region>
      <LatLonAltBox>
        <north>39.00819445555555</north>
        <south>38.93708334444444</south>
        <east>31.05124998888890</east>
        <west>30.98013887777779</west>
      </LatLonAltBox>
      <Lod>
        <minLodPixels>128</minLodPixels>
        <maxLodPixels>-1</maxLodPixels>
      </Lod>
    </Region>
    <GroundOverlay>
      <drawOrder>14</drawOrder>
      <Icon>
        <href>43.png</href>
      </Icon>
      <LatLonBox>
        <north>39.00819445555555</north>
        <south>38.93708334444444</south>
        <east>31.05124998888890</east>
        <west>30.98013887777779</west>
      </LatLonBox>
    </GroundOverlay>
      </Document>
</kml>
    