<?xml version="1.0" encoding="utf-8"?>
<kml xmlns="http://www.opengis.net/kml/2.2">
  <Document>
    <name>7/89/0.kml</name>
    <description></description>
    <Style>
      <ListStyle id="hideChildren">
        <listItemType>checkHideChildren</listItemType>
      </ListStyle>
    </Style>
    <Region>
      <LatLonAltBox>
        <north>42.06597223333333</north>
        <south>41.99486112222222</south>
        <east>32.47347221111112</east>
        <west>32.40236110000001</west>
      </LatLonAltBox>
      <Lod>
        <minLodPixels>128</minLodPixels>
        <maxLodPixels>-1</maxLodPixels>
      </Lod>
    </Region>
    <GroundOverlay>
      <drawOrder>14</drawOrder>
      <Icon>
        <href>0.png</href>
      </Icon>
      <LatLonBox>
        <north>42.06597223333333</north>
        <south>41.99486112222222</south>
        <east>32.47347221111112</east>
        <west>32.40236110000001</west>
      </LatLonBox>
    </GroundOverlay>
      </Document>
</kml>
    