<?xml version="1.0" encoding="utf-8"?>
<kml xmlns="http://www.opengis.net/kml/2.2">
  <Document>
    <name>5/18/10.kml</name>
    <description></description>
    <Style>
      <ListStyle id="hideChildren">
        <listItemType>checkHideChildren</listItemType>
      </ListStyle>
    </Style>
    <Region>
      <LatLonAltBox>
        <north>39.22152778888888</north>
        <south>38.93708334444444</south>
        <east>31.47791665555557</east>
        <west>31.19347221111112</west>
      </LatLonAltBox>
      <Lod>
        <minLodPixels>128</minLodPixels>
        <maxLodPixels>2048</maxLodPixels>
      </Lod>
    </Region>
    <GroundOverlay>
      <drawOrder>10</drawOrder>
      <Icon>
        <href>10.png</href>
      </Icon>
      <LatLonBox>
        <north>39.22152778888888</north>
        <south>38.93708334444444</south>
        <east>31.47791665555557</east>
        <west>31.19347221111112</west>
      </LatLonBox>
    </GroundOverlay>

    <NetworkLink>
      <name>6/36/21.png</name>
      <Region>
        <LatLonAltBox>
          <north>39.07930556666666</north>
          <south>38.93708334444444</south>
          <east>31.33569443333335</east>
          <west>31.19347221111112</west>
        </LatLonAltBox>
        <Lod>
          <minLodPixels>128</minLodPixels>
          <maxLodPixels>-1</maxLodPixels>
        </Lod>
      </Region>
      <Link>
        <href>../../6/36/21.kml</href>
        <viewRefreshMode>onRegion</viewRefreshMode>
        <viewFormat/>
      </Link>
    </NetworkLink>
        
    <NetworkLink>
      <name>6/37/21.png</name>
      <Region>
        <LatLonAltBox>
          <north>39.07930556666666</north>
          <south>38.93708334444444</south>
          <east>31.47791665555557</east>
          <west>31.33569443333334</west>
        </LatLonAltBox>
        <Lod>
          <minLodPixels>128</minLodPixels>
          <maxLodPixels>-1</maxLodPixels>
        </Lod>
      </Region>
      <Link>
        <href>../../6/37/21.kml</href>
        <viewRefreshMode>onRegion</viewRefreshMode>
        <viewFormat/>
      </Link>
    </NetworkLink>
        
    <NetworkLink>
      <name>6/36/20.png</name>
      <Region>
        <LatLonAltBox>
          <north>39.22152778888888</north>
          <south>39.07930556666666</south>
          <east>31.33569443333335</east>
          <west>31.19347221111112</west>
        </LatLonAltBox>
        <Lod>
          <minLodPixels>128</minLodPixels>
          <maxLodPixels>-1</maxLodPixels>
        </Lod>
      </Region>
      <Link>
        <href>../../6/36/20.kml</href>
        <viewRefreshMode>onRegion</viewRefreshMode>
        <viewFormat/>
      </Link>
    </NetworkLink>
        
    <NetworkLink>
      <name>6/37/20.png</name>
      <Region>
        <LatLonAltBox>
          <north>39.22152778888888</north>
          <south>39.07930556666666</south>
          <east>31.47791665555557</east>
          <west>31.33569443333334</west>
        </LatLonAltBox>
        <Lod>
          <minLodPixels>128</minLodPixels>
          <maxLodPixels>-1</maxLodPixels>
        </Lod>
      </Region>
      <Link>
        <href>../../6/37/20.kml</href>
        <viewRefreshMode>onRegion</viewRefreshMode>
        <viewFormat/>
      </Link>
    </NetworkLink>
              </Document>
</kml>
    