<?xml version="1.0" encoding="utf-8"?>
<kml xmlns="http://www.opengis.net/kml/2.2">
  <Document>
    <name>7/38/7.kml</name>
    <description></description>
    <Style>
      <ListStyle id="hideChildren">
        <listItemType>checkHideChildren</listItemType>
      </ListStyle>
    </Style>
    <Region>
      <LatLonAltBox>
        <north>41.56819445555555</north>
        <south>41.49708334444444</south>
        <east>28.84680554444446</east>
        <west>28.77569443333335</west>
      </LatLonAltBox>
      <Lod>
        <minLodPixels>128</minLodPixels>
        <maxLodPixels>-1</maxLodPixels>
      </Lod>
    </Region>
    <GroundOverlay>
      <drawOrder>14</drawOrder>
      <Icon>
        <href>7.png</href>
      </Icon>
      <LatLonBox>
        <north>41.56819445555555</north>
        <south>41.49708334444444</south>
        <east>28.84680554444446</east>
        <west>28.77569443333335</west>
      </LatLonBox>
    </GroundOverlay>
      </Document>
</kml>
    