<?xml version="1.0" encoding="utf-8"?>
<kml xmlns="http://www.opengis.net/kml/2.2">
  <Document>
    <name>7/29/37.kml</name>
    <description></description>
    <Style>
      <ListStyle id="hideChildren">
        <listItemType>checkHideChildren</listItemType>
      </ListStyle>
    </Style>
    <Region>
      <LatLonAltBox>
        <north>39.43486112222222</north>
        <south>39.36375001111111</south>
        <east>28.20680554444446</east>
        <west>28.13569443333335</west>
      </LatLonAltBox>
      <Lod>
        <minLodPixels>128</minLodPixels>
        <maxLodPixels>-1</maxLodPixels>
      </Lod>
    </Region>
    <GroundOverlay>
      <drawOrder>14</drawOrder>
      <Icon>
        <href>37.png</href>
      </Icon>
      <LatLonBox>
        <north>39.43486112222222</north>
        <south>39.36375001111111</south>
        <east>28.20680554444446</east>
        <west>28.13569443333335</west>
      </LatLonBox>
    </GroundOverlay>
      </Document>
</kml>
    