<?xml version="1.0" encoding="utf-8"?>
<kml xmlns="http://www.opengis.net/kml/2.2">
  <Document>
    <name>6/21/17.kml</name>
    <description></description>
    <Style>
      <ListStyle id="hideChildren">
        <listItemType>checkHideChildren</listItemType>
      </ListStyle>
    </Style>
    <Region>
      <LatLonAltBox>
        <north>39.64819445555555</north>
        <south>39.50597223333332</south>
        <east>29.20236110000002</east>
        <west>29.06013887777779</west>
      </LatLonAltBox>
      <Lod>
        <minLodPixels>128</minLodPixels>
        <maxLodPixels>2048</maxLodPixels>
      </Lod>
    </Region>
    <GroundOverlay>
      <drawOrder>12</drawOrder>
      <Icon>
        <href>17.png</href>
      </Icon>
      <LatLonBox>
        <north>39.64819445555555</north>
        <south>39.50597223333332</south>
        <east>29.20236110000002</east>
        <west>29.06013887777779</west>
      </LatLonBox>
    </GroundOverlay>

    <NetworkLink>
      <name>7/42/35.png</name>
      <Region>
        <LatLonAltBox>
          <north>39.57708334444444</north>
          <south>39.50597223333333</south>
          <east>29.13124998888890</east>
          <west>29.06013887777779</west>
        </LatLonAltBox>
        <Lod>
          <minLodPixels>128</minLodPixels>
          <maxLodPixels>-1</maxLodPixels>
        </Lod>
      </Region>
      <Link>
        <href>../../7/42/35.kml</href>
        <viewRefreshMode>onRegion</viewRefreshMode>
        <viewFormat/>
      </Link>
    </NetworkLink>
        
    <NetworkLink>
      <name>7/43/35.png</name>
      <Region>
        <LatLonAltBox>
          <north>39.57708334444444</north>
          <south>39.50597223333333</south>
          <east>29.20236110000002</east>
          <west>29.13124998888890</west>
        </LatLonAltBox>
        <Lod>
          <minLodPixels>128</minLodPixels>
          <maxLodPixels>-1</maxLodPixels>
        </Lod>
      </Region>
      <Link>
        <href>../../7/43/35.kml</href>
        <viewRefreshMode>onRegion</viewRefreshMode>
        <viewFormat/>
      </Link>
    </NetworkLink>
        
    <NetworkLink>
      <name>7/42/34.png</name>
      <Region>
        <LatLonAltBox>
          <north>39.64819445555555</north>
          <south>39.57708334444444</south>
          <east>29.13124998888890</east>
          <west>29.06013887777779</west>
        </LatLonAltBox>
        <Lod>
          <minLodPixels>128</minLodPixels>
          <maxLodPixels>-1</maxLodPixels>
        </Lod>
      </Region>
      <Link>
        <href>../../7/42/34.kml</href>
        <viewRefreshMode>onRegion</viewRefreshMode>
        <viewFormat/>
      </Link>
    </NetworkLink>
        
    <NetworkLink>
      <name>7/43/34.png</name>
      <Region>
        <LatLonAltBox>
          <north>39.64819445555555</north>
          <south>39.57708334444444</south>
          <east>29.20236110000002</east>
          <west>29.13124998888890</west>
        </LatLonAltBox>
        <Lod>
          <minLodPixels>128</minLodPixels>
          <maxLodPixels>-1</maxLodPixels>
        </Lod>
      </Region>
      <Link>
        <href>../../7/43/34.kml</href>
        <viewRefreshMode>onRegion</viewRefreshMode>
        <viewFormat/>
      </Link>
    </NetworkLink>
              </Document>
</kml>
    