<?xml version="1.0" encoding="utf-8"?>
<kml xmlns="http://www.opengis.net/kml/2.2">
  <Document>
    <name>6/21/5.kml</name>
    <description></description>
    <Style>
      <ListStyle id="hideChildren">
        <listItemType>checkHideChildren</listItemType>
      </ListStyle>
    </Style>
    <Region>
      <LatLonAltBox>
        <north>41.35486112222222</north>
        <south>41.21263889999999</south>
        <east>29.20236110000002</east>
        <west>29.06013887777779</west>
      </LatLonAltBox>
      <Lod>
        <minLodPixels>128</minLodPixels>
        <maxLodPixels>2048</maxLodPixels>
      </Lod>
    </Region>
    <GroundOverlay>
      <drawOrder>12</drawOrder>
      <Icon>
        <href>5.png</href>
      </Icon>
      <LatLonBox>
        <north>41.35486112222222</north>
        <south>41.21263889999999</south>
        <east>29.20236110000002</east>
        <west>29.06013887777779</west>
      </LatLonBox>
    </GroundOverlay>

    <NetworkLink>
      <name>7/42/11.png</name>
      <Region>
        <LatLonAltBox>
          <north>41.28375001111110</north>
          <south>41.21263889999999</south>
          <east>29.13124998888890</east>
          <west>29.06013887777779</west>
        </LatLonAltBox>
        <Lod>
          <minLodPixels>128</minLodPixels>
          <maxLodPixels>-1</maxLodPixels>
        </Lod>
      </Region>
      <Link>
        <href>../../7/42/11.kml</href>
        <viewRefreshMode>onRegion</viewRefreshMode>
        <viewFormat/>
      </Link>
    </NetworkLink>
        
    <NetworkLink>
      <name>7/43/11.png</name>
      <Region>
        <LatLonAltBox>
          <north>41.28375001111110</north>
          <south>41.21263889999999</south>
          <east>29.20236110000002</east>
          <west>29.13124998888890</west>
        </LatLonAltBox>
        <Lod>
          <minLodPixels>128</minLodPixels>
          <maxLodPixels>-1</maxLodPixels>
        </Lod>
      </Region>
      <Link>
        <href>../../7/43/11.kml</href>
        <viewRefreshMode>onRegion</viewRefreshMode>
        <viewFormat/>
      </Link>
    </NetworkLink>
        
    <NetworkLink>
      <name>7/42/10.png</name>
      <Region>
        <LatLonAltBox>
          <north>41.35486112222222</north>
          <south>41.28375001111111</south>
          <east>29.13124998888890</east>
          <west>29.06013887777779</west>
        </LatLonAltBox>
        <Lod>
          <minLodPixels>128</minLodPixels>
          <maxLodPixels>-1</maxLodPixels>
        </Lod>
      </Region>
      <Link>
        <href>../../7/42/10.kml</href>
        <viewRefreshMode>onRegion</viewRefreshMode>
        <viewFormat/>
      </Link>
    </NetworkLink>
        
    <NetworkLink>
      <name>7/43/10.png</name>
      <Region>
        <LatLonAltBox>
          <north>41.35486112222222</north>
          <south>41.28375001111111</south>
          <east>29.20236110000002</east>
          <west>29.13124998888890</west>
        </LatLonAltBox>
        <Lod>
          <minLodPixels>128</minLodPixels>
          <maxLodPixels>-1</maxLodPixels>
        </Lod>
      </Region>
      <Link>
        <href>../../7/43/10.kml</href>
        <viewRefreshMode>onRegion</viewRefreshMode>
        <viewFormat/>
      </Link>
    </NetworkLink>
              </Document>
</kml>
    