<?xml version="1.0" encoding="utf-8"?>
<kml xmlns="http://www.opengis.net/kml/2.2">
  <Document>
    <name>6/24/10.kml</name>
    <description></description>
    <Style>
      <ListStyle id="hideChildren">
        <listItemType>checkHideChildren</listItemType>
      </ListStyle>
    </Style>
    <Region>
      <LatLonAltBox>
        <north>40.64375001111110</north>
        <south>40.50152778888888</south>
        <east>29.62902776666668</east>
        <west>29.48680554444446</west>
      </LatLonAltBox>
      <Lod>
        <minLodPixels>128</minLodPixels>
        <maxLodPixels>2048</maxLodPixels>
      </Lod>
    </Region>
    <GroundOverlay>
      <drawOrder>12</drawOrder>
      <Icon>
        <href>10.png</href>
      </Icon>
      <LatLonBox>
        <north>40.64375001111110</north>
        <south>40.50152778888888</south>
        <east>29.62902776666668</east>
        <west>29.48680554444446</west>
      </LatLonBox>
    </GroundOverlay>

    <NetworkLink>
      <name>7/48/21.png</name>
      <Region>
        <LatLonAltBox>
          <north>40.57263889999999</north>
          <south>40.50152778888889</south>
          <east>29.55791665555557</east>
          <west>29.48680554444446</west>
        </LatLonAltBox>
        <Lod>
          <minLodPixels>128</minLodPixels>
          <maxLodPixels>-1</maxLodPixels>
        </Lod>
      </Region>
      <Link>
        <href>../../7/48/21.kml</href>
        <viewRefreshMode>onRegion</viewRefreshMode>
        <viewFormat/>
      </Link>
    </NetworkLink>
        
    <NetworkLink>
      <name>7/49/21.png</name>
      <Region>
        <LatLonAltBox>
          <north>40.57263889999999</north>
          <south>40.50152778888889</south>
          <east>29.62902776666668</east>
          <west>29.55791665555557</west>
        </LatLonAltBox>
        <Lod>
          <minLodPixels>128</minLodPixels>
          <maxLodPixels>-1</maxLodPixels>
        </Lod>
      </Region>
      <Link>
        <href>../../7/49/21.kml</href>
        <viewRefreshMode>onRegion</viewRefreshMode>
        <viewFormat/>
      </Link>
    </NetworkLink>
        
    <NetworkLink>
      <name>7/48/20.png</name>
      <Region>
        <LatLonAltBox>
          <north>40.64375001111110</north>
          <south>40.57263889999999</south>
          <east>29.55791665555557</east>
          <west>29.48680554444446</west>
        </LatLonAltBox>
        <Lod>
          <minLodPixels>128</minLodPixels>
          <maxLodPixels>-1</maxLodPixels>
        </Lod>
      </Region>
      <Link>
        <href>../../7/48/20.kml</href>
        <viewRefreshMode>onRegion</viewRefreshMode>
        <viewFormat/>
      </Link>
    </NetworkLink>
        
    <NetworkLink>
      <name>7/49/20.png</name>
      <Region>
        <LatLonAltBox>
          <north>40.64375001111110</north>
          <south>40.57263889999999</south>
          <east>29.62902776666668</east>
          <west>29.55791665555557</west>
        </LatLonAltBox>
        <Lod>
          <minLodPixels>128</minLodPixels>
          <maxLodPixels>-1</maxLodPixels>
        </Lod>
      </Region>
      <Link>
        <href>../../7/49/20.kml</href>
        <viewRefreshMode>onRegion</viewRefreshMode>
        <viewFormat/>
      </Link>
    </NetworkLink>
              </Document>
</kml>
    