<?xml version="1.0" encoding="utf-8"?>
<kml xmlns="http://www.opengis.net/kml/2.2">
  <Document>
    <name>7/54/20.kml</name>
    <description></description>
    <Style>
      <ListStyle id="hideChildren">
        <listItemType>checkHideChildren</listItemType>
      </ListStyle>
    </Style>
    <Region>
      <LatLonAltBox>
        <north>40.64375001111110</north>
        <south>40.57263889999999</south>
        <east>29.98458332222224</east>
        <west>29.91347221111112</west>
      </LatLonAltBox>
      <Lod>
        <minLodPixels>128</minLodPixels>
        <maxLodPixels>-1</maxLodPixels>
      </Lod>
    </Region>
    <GroundOverlay>
      <drawOrder>14</drawOrder>
      <Icon>
        <href>20.png</href>
      </Icon>
      <LatLonBox>
        <north>40.64375001111110</north>
        <south>40.57263889999999</south>
        <east>29.98458332222224</east>
        <west>29.91347221111112</west>
      </LatLonBox>
    </GroundOverlay>
      </Document>
</kml>
    