<?xml version="1.0" encoding="utf-8"?>
<kml xmlns="http://www.opengis.net/kml/2.2">
  <Document>
    <name>7/24/35.kml</name>
    <description></description>
    <Style>
      <ListStyle id="hideChildren">
        <listItemType>checkHideChildren</listItemType>
      </ListStyle>
    </Style>
    <Region>
      <LatLonAltBox>
        <north>39.57708334444444</north>
        <south>39.50597223333333</south>
        <east>27.85124998888890</east>
        <west>27.78013887777779</west>
      </LatLonAltBox>
      <Lod>
        <minLodPixels>128</minLodPixels>
        <maxLodPixels>-1</maxLodPixels>
      </Lod>
    </Region>
    <GroundOverlay>
      <drawOrder>14</drawOrder>
      <Icon>
        <href>35.png</href>
      </Icon>
      <LatLonBox>
        <north>39.57708334444444</north>
        <south>39.50597223333333</south>
        <east>27.85124998888890</east>
        <west>27.78013887777779</west>
      </LatLonBox>
    </GroundOverlay>
      </Document>
</kml>
    