<?xml version="1.0" encoding="utf-8"?>
<kml xmlns="http://www.opengis.net/kml/2.2">
  <Document>
    <name>4/0/3.kml</name>
    <description></description>
    <Style>
      <ListStyle id="hideChildren">
        <listItemType>checkHideChildren</listItemType>
      </ListStyle>
    </Style>
    <Region>
      <LatLonAltBox>
        <north>40.35930556666666</north>
        <south>39.79041667777778</south>
        <east>26.64236110000001</east>
        <west>26.07347221111112</west>
      </LatLonAltBox>
      <Lod>
        <minLodPixels>128</minLodPixels>
        <maxLodPixels>2048</maxLodPixels>
      </Lod>
    </Region>
    <GroundOverlay>
      <drawOrder>9</drawOrder>
      <Icon>
        <href>3.png</href>
      </Icon>
      <LatLonBox>
        <north>40.35930556666666</north>
        <south>39.79041667777778</south>
        <east>26.64236110000001</east>
        <west>26.07347221111112</west>
      </LatLonBox>
    </GroundOverlay>

    <NetworkLink>
      <name>5/0/7.png</name>
      <Region>
        <LatLonAltBox>
          <north>40.07486112222222</north>
          <south>39.79041667777777</south>
          <east>26.35791665555557</east>
          <west>26.07347221111112</west>
        </LatLonAltBox>
        <Lod>
          <minLodPixels>128</minLodPixels>
          <maxLodPixels>-1</maxLodPixels>
        </Lod>
      </Region>
      <Link>
        <href>../../5/0/7.kml</href>
        <viewRefreshMode>onRegion</viewRefreshMode>
        <viewFormat/>
      </Link>
    </NetworkLink>
        
    <NetworkLink>
      <name>5/1/7.png</name>
      <Region>
        <LatLonAltBox>
          <north>40.07486112222222</north>
          <south>39.79041667777777</south>
          <east>26.64236110000001</east>
          <west>26.35791665555557</west>
        </LatLonAltBox>
        <Lod>
          <minLodPixels>128</minLodPixels>
          <maxLodPixels>-1</maxLodPixels>
        </Lod>
      </Region>
      <Link>
        <href>../../5/1/7.kml</href>
        <viewRefreshMode>onRegion</viewRefreshMode>
        <viewFormat/>
      </Link>
    </NetworkLink>
        
    <NetworkLink>
      <name>5/0/6.png</name>
      <Region>
        <LatLonAltBox>
          <north>40.35930556666666</north>
          <south>40.07486112222222</south>
          <east>26.35791665555557</east>
          <west>26.07347221111112</west>
        </LatLonAltBox>
        <Lod>
          <minLodPixels>128</minLodPixels>
          <maxLodPixels>-1</maxLodPixels>
        </Lod>
      </Region>
      <Link>
        <href>../../5/0/6.kml</href>
        <viewRefreshMode>onRegion</viewRefreshMode>
        <viewFormat/>
      </Link>
    </NetworkLink>
        
    <NetworkLink>
      <name>5/1/6.png</name>
      <Region>
        <LatLonAltBox>
          <north>40.35930556666666</north>
          <south>40.07486112222222</south>
          <east>26.64236110000001</east>
          <west>26.35791665555557</west>
        </LatLonAltBox>
        <Lod>
          <minLodPixels>128</minLodPixels>
          <maxLodPixels>-1</maxLodPixels>
        </Lod>
      </Region>
      <Link>
        <href>../../5/1/6.kml</href>
        <viewRefreshMode>onRegion</viewRefreshMode>
        <viewFormat/>
      </Link>
    </NetworkLink>
              </Document>
</kml>
    