<?xml version="1.0" encoding="utf-8"?>
<kml xmlns="http://www.opengis.net/kml/2.2">
  <Document>
    <name>6/28/14.kml</name>
    <description></description>
    <Style>
      <ListStyle id="hideChildren">
        <listItemType>checkHideChildren</listItemType>
      </ListStyle>
    </Style>
    <Region>
      <LatLonAltBox>
        <north>40.07486112222222</north>
        <south>39.93263889999999</south>
        <east>30.19791665555557</east>
        <west>30.05569443333335</west>
      </LatLonAltBox>
      <Lod>
        <minLodPixels>128</minLodPixels>
        <maxLodPixels>2048</maxLodPixels>
      </Lod>
    </Region>
    <GroundOverlay>
      <drawOrder>12</drawOrder>
      <Icon>
        <href>14.png</href>
      </Icon>
      <LatLonBox>
        <north>40.07486112222222</north>
        <south>39.93263889999999</south>
        <east>30.19791665555557</east>
        <west>30.05569443333335</west>
      </LatLonBox>
    </GroundOverlay>

    <NetworkLink>
      <name>7/56/29.png</name>
      <Region>
        <LatLonAltBox>
          <north>40.00375001111110</north>
          <south>39.93263889999999</south>
          <east>30.12680554444446</east>
          <west>30.05569443333335</west>
        </LatLonAltBox>
        <Lod>
          <minLodPixels>128</minLodPixels>
          <maxLodPixels>-1</maxLodPixels>
        </Lod>
      </Region>
      <Link>
        <href>../../7/56/29.kml</href>
        <viewRefreshMode>onRegion</viewRefreshMode>
        <viewFormat/>
      </Link>
    </NetworkLink>
        
    <NetworkLink>
      <name>7/57/29.png</name>
      <Region>
        <LatLonAltBox>
          <north>40.00375001111110</north>
          <south>39.93263889999999</south>
          <east>30.19791665555557</east>
          <west>30.12680554444446</west>
        </LatLonAltBox>
        <Lod>
          <minLodPixels>128</minLodPixels>
          <maxLodPixels>-1</maxLodPixels>
        </Lod>
      </Region>
      <Link>
        <href>../../7/57/29.kml</href>
        <viewRefreshMode>onRegion</viewRefreshMode>
        <viewFormat/>
      </Link>
    </NetworkLink>
        
    <NetworkLink>
      <name>7/56/28.png</name>
      <Region>
        <LatLonAltBox>
          <north>40.07486112222222</north>
          <south>40.00375001111111</south>
          <east>30.12680554444446</east>
          <west>30.05569443333335</west>
        </LatLonAltBox>
        <Lod>
          <minLodPixels>128</minLodPixels>
          <maxLodPixels>-1</maxLodPixels>
        </Lod>
      </Region>
      <Link>
        <href>../../7/56/28.kml</href>
        <viewRefreshMode>onRegion</viewRefreshMode>
        <viewFormat/>
      </Link>
    </NetworkLink>
        
    <NetworkLink>
      <name>7/57/28.png</name>
      <Region>
        <LatLonAltBox>
          <north>40.07486112222222</north>
          <south>40.00375001111111</south>
          <east>30.19791665555557</east>
          <west>30.12680554444446</west>
        </LatLonAltBox>
        <Lod>
          <minLodPixels>128</minLodPixels>
          <maxLodPixels>-1</maxLodPixels>
        </Lod>
      </Region>
      <Link>
        <href>../../7/57/28.kml</href>
        <viewRefreshMode>onRegion</viewRefreshMode>
        <viewFormat/>
      </Link>
    </NetworkLink>
              </Document>
</kml>
    